{"type":"FeatureCollection","features":[{"type":"Feature","geometry":{"type":"Polygon","coordinates":[[[9.8597,12.223],[9.9565,12.2792],[10.0171,12.3738],[10.1016,12.3865],[10.195,12.3281],[10.2541,12.391],[10.225,12.4339],[10.1069,12.4169],[10.0521,12.4319],[10.0277,12.4406],[9.9646,12.4143],[9.8966,12.35],[9.8203,12.3054],[9.8597,12.223]]]},"properties":{"name":"AUYO","state":"17","code":"17/01"}},{"type":"Feature","geometry":{"type":"Polygon","coordinates":[[[8.7951,12.3823],[8.8516,12.4196],[8.9473,12.5793],[8.9999,12.5872],[9.039,12.6285],[9.0865,12.7742],[9.0473,12.8162],[8.9829,12.8068],[8.9513,12.7381],[8.8646,12.669],[8.7229,12.6699],[8.7011,12.687],[8.6577,12.6594],[8.6407,12.593],[8.7191,12.5666],[8.6875,12.4828],[8.7099,12.4159],[8.7638,12.4199],[8.7951,12.3823]]]},"properties":{"name":"BABURA","state":"17","code":"17/02"}},{"type":"Feature","geometry":{"type":"Polygon","coordinates":[[[9.6259,11.2367],[9.6615,11.2849],[9.6459,11.3562],[9.6489,11.4611],[9.6272,11.6105],[9.6726,11.6558],[9.6644,11.7268],[9.6397,11.733],[9.5367,11.6834],[9.481,11.6136],[9.4204,11.5579],[9.3603,11.5608],[9.23,11.4457],[9.195,11.3266],[9.2871,11.3494],[9.3514,11.3432],[9.4116,11.3],[9.4975,11.2781],[9.5118,11.3131],[9.6094,11.3155],[9.6259,11.2367]]]},"properties":{"name":"BIRNIN KUDU","state":"17","code":"17/03"}},{"type":"Feature","geometry":{"type":"Polygon","coordinates":[[[9.8531,12.6253],[9.9825,12.6327],[10.0849,12.687],[10.1884,12.6954],[10.3071,12.7765],[10.3514,12.7743],[10.3253,12.8115],[10.264,12.9548],[10.2243,13.0148],[9.988,12.9564],[9.9297,12.9185],[9.8582,12.8202],[9.7652,12.7962],[9.8622,12.665],[9.8531,12.6253]]]},"properties":{"name":"BIRNIWA","state":"17","code":"17/04"}},{"type":"Feature","geometry":{"type":"Polygon","coordinates":[[[9.6459,11.3562],[9.6845,11.4033],[9.788,11.4633],[9.8308,11.5403],[9.8208,11.6716],[9.7796,11.7365],[9.6644,11.7268],[9.6726,11.6558],[9.6272,11.6105],[9.6489,11.4611],[9.6459,11.3562]]]},"properties":{"name":"BUJI","state":"17","code":"17/05"}},{"type":"Feature","geometry":{"type":"Polygon","coordinates":[[[9.481,11.6136],[9.3888,11.7642],[9.3629,11.7861],[9.4537,11.9129],[9.4075,11.9452],[9.3804,12.0157],[9.3193,12.0569],[9.223,11.9896],[9.202,11.9047],[9.1871,11.8346],[9.1439,11.8266],[9.1574,11.7192],[9.2258,11.7357],[9.2414,11.6454],[9.3274,11.5771],[9.3603,11.5608],[9.4204,11.5579],[9.481,11.6136]]]},"properties":{"name":"DUTSE","state":"17","code":"17/06"}},{"type":"Feature","geometry":{"type":"Polygon","coordinates":[[[8.7951,12.3823],[8.7235,12.2948],[8.7879,12.2773],[8.8396,12.3082],[8.9099,12.301],[8.9581,12.3138],[9.1456,12.3256],[9.2165,12.3354],[9.3356,12.2855],[9.3672,12.3363],[9.4168,12.3151],[9.5349,12.3672],[9.4209,12.3842],[9.3987,12.4089],[9.26,12.4298],[9.1911,12.5199],[8.9999,12.5872],[8.9473,12.5793],[8.8516,12.4196],[8.7951,12.3823]]]},"properties":{"name":"GARKI","state":"17","code":"17/07"}},{"type":"Feature","geometry":{"type":"Polygon","coordinates":[[[9.5349,12.3672],[9.5792,12.3913],[9.6482,12.4294],[9.6641,12.5627],[9.4758,12.5925],[9.4004,12.5601],[9.3987,12.4089],[9.4209,12.3842],[9.5349,12.3672]]]},"properties":{"name":"GAGARAWA","state":"17","code":"17/08"}},{"type":"Feature","geometry":{"type":"Polygon","coordinates":[[[9.4758,12.5925],[9.4707,12.681],[9.4116,12.7054],[9.3496,12.6821],[9.3206,12.6614],[9.3238,12.5831],[9.4004,12.5601],[9.4758,12.5925]]]},"properties":{"name":"GUMEL","state":"17","code":"17/09"}},{"type":"Feature","geometry":{"type":"Polygon","coordinates":[[[10.3514,12.7743],[10.3726,12.7281],[10.3645,12.6542],[10.3257,12.6073],[10.3106,12.5284],[10.3632,12.4521],[10.4589,12.4407],[10.6056,12.489],[10.5986,12.7061],[10.5377,12.8236],[10.4752,12.79],[10.3854,12.8411],[10.3253,12.8115],[10.3514,12.7743]]]},"properties":{"name":"GURI","state":"17","code":"17/10"}},{"type":"Feature","geometry":{"type":"Polygon","coordinates":[[[9.6259,11.2367],[9.6841,11.2219],[9.8249,11.2788],[9.8827,11.1638],[9.889,11.094],[9.8552,11.0765],[9.8629,11.0064],[9.9855,10.9582],[10.088,10.99],[10.134,10.9475],[10.1892,11.0817],[10.2696,11.088],[10.3357,11.1434],[10.3585,11.2081],[10.2795,11.2032],[10.1897,11.2222],[10.0842,11.2697],[9.9985,11.2646],[9.885,11.3567],[9.878,11.4485],[9.788,11.4633],[9.6845,11.4033],[9.6459,11.3562],[9.6615,11.2849],[9.6259,11.2367]]]},"properties":{"name":"GWARAM","state":"17","code":"17/11"}},{"type":"Feature","geometry":{"type":"Polygon","coordinates":[[[8.16,12.684],[8.2523,12.6937],[8.2829,12.651],[8.3441,12.6529],[8.4027,12.7059],[8.3984,12.8259],[8.2421,12.8261],[8.1416,12.811],[8.1851,12.7325],[8.16,12.684]]]},"properties":{"name":"GWIWA","state":"17","code":"17/12"}},{"type":"Feature","geometry":{"type":"Polygon","coordinates":[[[10.0521,12.4319],[10.062,12.4847],[10.0277,12.4406],[10.0521,12.4319]]]},"properties":{"name":"HADEJIA","state":"17","code":"17/13"}},{"type":"Feature","geometry":{"type":"Polygon","coordinates":[[[9.4537,11.9129],[9.5819,11.9799],[9.595,11.9336],[9.6773,11.9318],[9.81,11.9645],[9.7698,12.1259],[9.7248,12.1463],[9.6096,12.1387],[9.5317,12.2083],[9.4614,12.1821],[9.4064,12.1947],[9.336,12.1657],[9.3489,12.1185],[9.3193,12.0569],[9.3804,12.0157],[9.4075,11.9452],[9.4537,11.9129]]]},"properties":{"name":"JAHUN","state":"17","code":"17/14"}},{"type":"Feature","geometry":{"type":"Polygon","coordinates":[[[9.8597,12.223],[9.82,12.202],[9.7698,12.1259],[9.81,11.9645],[9.8987,11.9381],[10.1749,12.0462],[10.1525,12.0899],[10.1704,12.165],[10.1475,12.2382],[10.195,12.3281],[10.1016,12.3865],[10.0171,12.3738],[9.9565,12.2792],[9.8597,12.223]]]},"properties":{"name":"KAFIN HAUSA","state":"17","code":"17/15"}},{"type":"Feature","geometry":{"type":"Polygon","coordinates":[[[9.8966,12.35],[9.9341,12.4113],[9.8922,12.4391],[9.79,12.4029],[9.7422,12.4427],[9.7977,12.4883],[9.8561,12.5892],[9.8531,12.6253],[9.8622,12.665],[9.7652,12.7962],[9.6807,12.8209],[9.7287,12.784],[9.7985,12.6591],[9.7654,12.6092],[9.6641,12.5627],[9.6482,12.4294],[9.5792,12.3913],[9.6078,12.328],[9.6722,12.3336],[9.684,12.2871],[9.8203,12.3054],[9.8966,12.35]]]},"properties":{"name":"KAUGAMA","state":"17","code":"17/16"}},{"type":"Feature","geometry":{"type":"Polygon","coordinates":[[[8.7011,12.687],[8.6686,12.7195],[8.5853,12.6673],[8.4917,12.7498],[8.4027,12.7059],[8.3441,12.6529],[8.3988,12.5868],[8.4584,12.5869],[8.532,12.6007],[8.6407,12.593],[8.6577,12.6594],[8.7011,12.687]]]},"properties":{"name":"KAZAURE","state":"17","code":"17/17"}},{"type":"Feature","geometry":{"type":"Polygon","coordinates":[[[10.225,12.4339],[10.2581,12.4596],[10.3632,12.4521],[10.3106,12.5284],[10.3257,12.6073],[10.3645,12.6542],[10.3726,12.7281],[10.3514,12.7743],[10.3071,12.7765],[10.1884,12.6954],[10.1515,12.6396],[10.159,12.569],[10.0627,12.5571],[10.062,12.4847],[10.0521,12.4319],[10.1069,12.4169],[10.225,12.4339]]]},"properties":{"name":"KIRIKA SAMMA","state":"17","code":"17/18"}},{"type":"Feature","geometry":{"type":"Polygon","coordinates":[[[9.6397,11.733],[9.7079,11.8499],[9.8335,11.8904],[9.8987,11.9381],[9.81,11.9645],[9.6773,11.9318],[9.595,11.9336],[9.5819,11.9799],[9.4537,11.9129],[9.3629,11.7861],[9.3888,11.7642],[9.481,11.6136],[9.5367,11.6834],[9.6397,11.733]]]},"properties":{"name":"KIYAWA","state":"17","code":"17/19"}},{"type":"Feature","geometry":{"type":"Polygon","coordinates":[[[9.6641,12.5627],[9.7654,12.6092],[9.7985,12.6591],[9.7287,12.784],[9.6807,12.8209],[9.6349,12.8024],[9.4308,12.8231],[9.3348,12.823],[9.3496,12.6821],[9.4116,12.7054],[9.4707,12.681],[9.4758,12.5925],[9.6641,12.5627]]]},"properties":{"name":"MAIGATARI","state":"17","code":"17/20"}},{"type":"Feature","geometry":{"type":"Polygon","coordinates":[[[10.0277,12.4406],[10.062,12.4847],[10.0627,12.5571],[10.159,12.569],[10.1515,12.6396],[10.1884,12.6954],[10.0849,12.687],[9.9825,12.6327],[9.8531,12.6253],[9.8561,12.5892],[9.7977,12.4883],[9.7422,12.4427],[9.79,12.4029],[9.8922,12.4391],[9.9341,12.4113],[9.8966,12.35],[9.9646,12.4143],[10.0277,12.4406]]]},"properties":{"name":"MALAM MADORI","state":"17","code":"17/21"}},{"type":"Feature","geometry":{"type":"Polygon","coordinates":[[[9.8203,12.3054],[9.684,12.2871],[9.6722,12.3336],[9.6078,12.328],[9.5317,12.2083],[9.6096,12.1387],[9.7248,12.1463],[9.7698,12.1259],[9.82,12.202],[9.8597,12.223],[9.8203,12.3054]]]},"properties":{"name":"MIGA","state":"17","code":"17/22"}},{"type":"Feature","geometry":{"type":"Polygon","coordinates":[[[9.3193,12.0569],[9.3489,12.1185],[9.336,12.1657],[9.18,12.2321],[9.1135,12.2832],[9.1456,12.3256],[8.9581,12.3138],[8.9099,12.301],[8.9522,12.1853],[8.9457,12.0723],[9.0741,12.0735],[9.1455,12.0394],[9.1987,12.0828],[9.223,11.9896],[9.3193,12.0569]]]},"properties":{"name":"RINGIM","state":"17","code":"17/23"}},{"type":"Feature","geometry":{"type":"Polygon","coordinates":[[[8.16,12.684],[8.1904,12.624],[8.2462,12.5944],[8.2886,12.5999],[8.3111,12.5077],[8.3656,12.4317],[8.4584,12.5869],[8.3988,12.5868],[8.3441,12.6529],[8.2829,12.651],[8.2523,12.6937],[8.16,12.684]]]},"properties":{"name":"RONI","state":"17","code":"17/24"}},{"type":"Feature","geometry":{"type":"Polygon","coordinates":[[[8.9999,12.5872],[9.1911,12.5199],[9.26,12.4298],[9.3987,12.4089],[9.4004,12.5601],[9.3238,12.5831],[9.3206,12.6614],[9.3496,12.6821],[9.3348,12.823],[9.0409,12.8461],[9.0473,12.8162],[9.0865,12.7742],[9.039,12.6285],[8.9999,12.5872]]]},"properties":{"name":"SULE-TANKARKAR","state":"17","code":"17/25"}},{"type":"Feature","geometry":{"type":"Polygon","coordinates":[[[9.1456,12.3256],[9.1135,12.2832],[9.18,12.2321],[9.336,12.1657],[9.4064,12.1947],[9.4614,12.1821],[9.5317,12.2083],[9.6078,12.328],[9.5792,12.3913],[9.5349,12.3672],[9.4168,12.3151],[9.3672,12.3363],[9.3356,12.2855],[9.2165,12.3354],[9.1456,12.3256]]]},"properties":{"name":"TAURA","state":"17","code":"17/26"}},{"type":"Feature","geometry":{"type":"Polygon","coordinates":[[[8.4027,12.7059],[8.4917,12.7498],[8.5853,12.6673],[8.6686,12.7195],[8.6038,12.7373],[8.5891,12.8086],[8.5522,12.8318],[8.5021,12.8338],[8.3984,12.8259],[8.4027,12.7059]]]},"properties":{"name":"YANKWASHI","state":"17","code":"17/27"}},{"type":"Feature","geometry":{"type":"Polygon","coordinates":[[[6.2665,10.9661],[6.2092,10.9018],[6.1226,10.8449],[6.0989,10.7017],[6.1372,10.6792],[6.1148,10.6053],[6.1583,10.5008],[6.1731,10.3809],[6.2357,10.3848],[6.3216,10.4435],[6.3154,10.4802],[6.4024,10.5744],[6.4945,10.6157],[6.5403,10.5452],[6.6471,10.5934],[6.7313,10.5964],[6.7198,10.6435],[6.8093,10.7915],[6.9169,10.7507],[6.9423,10.6976],[7.0076,10.6632],[7.0192,10.5602],[7.1044,10.5566],[7.1292,10.7144],[6.996,10.7961],[6.9527,10.8943],[6.9975,10.9338],[7.136,10.952],[7.1616,11.1309],[7.0767,11.1953],[6.9677,11.2452],[7.0087,11.2938],[7.0062,11.3618],[6.8894,11.3836],[6.7706,11.3201],[6.7668,11.2722],[6.7034,11.239],[6.6874,11.0917],[6.6565,11.052],[6.5773,11.0216],[6.5334,11.0479],[6.437,11.0076],[6.3916,11.0338],[6.337,11.0215],[6.2665,10.9661]]]},"properties":{"name":"BIRNIN GWARI","state":"18","code":"18/01"}},{"type":"Feature","geometry":{"type":"Polygon","coordinates":[[[6.7198,10.6435],[6.803,10.6432],[6.8419,10.5725],[6.9126,10.538],[6.9535,10.4822],[6.9231,10.3822],[7.0202,10.3541],[7.0508,10.3171],[7.0098,10.2504],[6.8853,10.1508],[6.9012,10.0764],[6.9523,10.0476],[7.1054,10.0265],[7.2541,10.0392],[7.335,10.0603],[7.3996,10.1106],[7.4451,10.1841],[7.5106,10.1947],[7.5382,10.275],[7.6041,10.3091],[7.5965,10.3947],[7.6642,10.3987],[7.7297,10.4775],[7.7051,10.5502],[7.6021,10.5878],[7.4871,10.5625],[7.4408,10.488],[7.378,10.4901],[7.2425,10.5272],[7.3106,10.6272],[7.1882,10.7262],[7.1292,10.7144],[7.1044,10.5566],[7.0192,10.5602],[7.0076,10.6632],[6.9423,10.6976],[6.9169,10.7507],[6.8093,10.7915],[6.7198,10.6435]]]},"properties":{"name":"CHIKUN","state":"18","code":"18/02"}},{"type":"Feature","geometry":{"type":"Polygon","coordinates":[[[7.1292,10.7144],[7.1882,10.7262],[7.2081,10.8348],[7.258,10.916],[7.3097,10.942],[7.3766,11.0139],[7.492,10.9629],[7.5231,10.9706],[7.5135,11.0614],[7.6056,11.0707],[7.6457,11.1308],[7.6022,11.1799],[7.6247,11.2163],[7.6187,11.2777],[7.4725,11.376],[7.39,11.3702],[7.3578,11.2643],[7.2896,11.2843],[7.1948,11.2576],[7.201,11.1534],[7.1616,11.1309],[7.136,10.952],[6.9975,10.9338],[6.9527,10.8943],[6.996,10.7961],[7.1292,10.7144]]]},"properties":{"name":"GIWA","state":"18","code":"18/03"}},{"type":"Feature","geometry":{"type":"Polygon","coordinates":[[[7.378,10.4901],[7.4118,10.5605],[7.4871,10.5625],[7.6021,10.5878],[7.7051,10.5502],[7.7297,10.4775],[7.8292,10.4979],[7.8697,10.5267],[7.8529,10.5955],[7.8894,10.678],[7.8156,10.8307],[7.8339,10.8731],[7.7919,10.9226],[7.7599,10.9703],[7.6684,10.9999],[7.5718,11.0027],[7.5231,10.9706],[7.492,10.9629],[7.3766,11.0139],[7.3097,10.942],[7.258,10.916],[7.2081,10.8348],[7.1882,10.7262],[7.3106,10.6272],[7.2425,10.5272],[7.378,10.4901]]]},"properties":{"name":"IGABI","state":"18","code":"18/04"}},{"type":"Feature","geometry":{"type":"Polygon","coordinates":[[[8.5187,11.1623],[8.4619,11.1718],[8.4338,11.2266],[8.3252,11.2272],[8.2644,11.3132],[8.2068,11.3187],[8.1433,11.4203],[8.1501,11.5192],[8.0358,11.4934],[7.9565,11.4674],[7.9757,11.4014],[8.0649,11.2969],[8.1034,11.2869],[8.0479,11.1956],[8.1579,11.1155],[8.2887,11.1054],[8.3195,11.1847],[8.4017,11.1539],[8.4085,11.1102],[8.506,11.1322],[8.5187,11.1623]]]},"properties":{"name":"IKARA","state":"18","code":"18/05"}},{"type":"Feature","geometry":{"type":"Polygon","coordinates":[[[7.9191,9.3174],[7.9406,9.3142],[8.0083,9.3231],[8.0932,9.4288],[8.0698,9.4954],[8.1518,9.5068],[8.1648,9.5511],[8.1167,9.625],[8.0791,9.5819],[8.0175,9.5718],[7.9479,9.6349],[7.9287,9.5674],[7.9593,9.3976],[7.9191,9.3174]]]},"properties":{"name":"JABA","state":"18","code":"18/06"}},{"type":"Feature","geometry":{"type":"Polygon","coordinates":[[[7.9406,9.3142],[8.0609,9.2658],[8.0872,9.2307],[8.1304,9.2154],[8.247,9.2394],[8.4128,9.3694],[8.4477,9.4342],[8.5159,9.4934],[8.5778,9.4992],[8.5557,9.5816],[8.4987,9.5756],[8.4541,9.5326],[8.3513,9.5427],[8.3118,9.6124],[8.2451,9.5588],[8.2271,9.505],[8.1648,9.5511],[8.1518,9.5068],[8.0698,9.4954],[8.0932,9.4288],[8.0083,9.3231],[7.9406,9.3142]]]},"properties":{"name":"JEMA'A","state":"18","code":"18/07"}},{"type":"Feature","geometry":{"type":"Polygon","coordinates":[[[7.2541,10.0392],[7.2778,10.0164],[7.2929,9.8112],[7.2047,9.7583],[7.2764,9.6899],[7.3056,9.6277],[7.2339,9.5648],[7.2514,9.521],[7.3087,9.5729],[7.4337,9.5933],[7.448,9.6162],[7.5679,9.5773],[7.648,9.6271],[7.7343,9.6092],[7.7486,9.6765],[7.8158,9.6479],[7.8365,9.6916],[7.9479,9.6349],[8.0175,9.5718],[8.0791,9.5819],[8.1167,9.625],[8.1334,9.6689],[8.0228,9.8016],[8.087,9.8611],[8.0423,9.9492],[8.028,10.04],[7.9519,10.1312],[7.8946,10.0673],[7.8203,10.0688],[7.8058,10.0181],[7.7481,9.978],[7.6373,10.0385],[7.556,10.1724],[7.5106,10.1947],[7.4451,10.1841],[7.3996,10.1106],[7.335,10.0603],[7.2541,10.0392]]]},"properties":{"name":"KACHIA","state":"18","code":"18/08"}},{"type":"Feature","geometry":{"type":"Polygon","coordinates":[[[7.4871,10.5625],[7.4118,10.5605],[7.4408,10.488],[7.4871,10.5625]]]},"properties":{"name":"KADUNA NORTH","state":"18","code":"18/09"}},{"type":"Feature","geometry":{"type":"Polygon","coordinates":[[[7.4408,10.488],[7.4118,10.5605],[7.378,10.4901],[7.4408,10.488]]]},"properties":{"name":"KADUNA SOUTH","state":"18","code":"18/10"}},{"type":"Feature","geometry":{"type":"Polygon","coordinates":[[[7.9479,9.6349],[7.8365,9.6916],[7.8158,9.6479],[7.7486,9.6765],[7.7343,9.6092],[7.648,9.6271],[7.5679,9.5773],[7.448,9.6162],[7.4337,9.5933],[7.3087,9.5729],[7.2514,9.521],[7.2009,9.4598],[7.2323,9.3177],[7.334,9.3408],[7.5091,9.355],[7.5421,9.3874],[7.647,9.4087],[7.693,9.3494],[7.7929,9.2756],[7.9191,9.3174],[7.9593,9.3976],[7.9287,9.5674],[7.9479,9.6349]]]},"properties":{"name":"KAGARKO","state":"18","code":"18/11"}},{"type":"Feature","geometry":{"type":"Polygon","coordinates":[[[7.5106,10.1947],[7.556,10.1724],[7.6373,10.0385],[7.7481,9.978],[7.8058,10.0181],[7.8203,10.0688],[7.8946,10.0673],[7.9519,10.1312],[8.0054,10.1708],[8.039,10.2829],[8.1171,10.2885],[8.0394,10.3432],[8.0002,10.4497],[7.898,10.4887],[7.8697,10.5267],[7.8292,10.4979],[7.7297,10.4775],[7.6642,10.3987],[7.5965,10.3947],[7.6041,10.3091],[7.5382,10.275],[7.5106,10.1947]]]},"properties":{"name":"KAJURU","state":"18","code":"18/12"}},{"type":"Feature","geometry":{"type":"Polygon","coordinates":[[[8.5557,9.5816],[8.5989,9.7279],[8.5011,9.7409],[8.4864,9.6918],[8.3651,9.7078],[8.3118,9.6124],[8.3513,9.5427],[8.4541,9.5326],[8.4987,9.5756],[8.5557,9.5816]]]},"properties":{"name":"KAURA","state":"18","code":"18/13"}},{"type":"Feature","geometry":{"type":"MultiPolygon","coordinates":[[[[8.5989,9.7279],[8.6439,9.7754],[8.6347,9.8668],[8.6796,10.0111],[8.6107,10.0012],[8.5385,10.0323],[8.4342,9.994],[8.4202,9.918],[8.4435,9.8778],[8.5096,9.8651],[8.4847,9.7641],[8.5011,9.7409],[8.5989,9.7279]]],[[[7.8697,10.5267],[7.898,10.4887],[8.0002,10.4497],[8.0394,10.3432],[8.1171,10.2885],[8.203,10.147],[8.2401,10.1195],[8.266,10.0314],[8.3582,10.0291],[8.4343,9.998],[8.5009,10.0922],[8.4395,10.1761],[8.3794,10.2957],[8.3305,10.3539],[8.4162,10.4442],[8.3203,10.4938],[8.3067,10.5771],[8.2592,10.5891],[8.2349,10.6662],[8.0888,10.6813],[7.9477,10.7146],[7.8894,10.678],[7.8529,10.5955],[7.8697,10.5267]]]]},"properties":{"name":"KAURU","state":"18","code":"18/14"}},{"type":"Feature","geometry":{"type":"Polygon","coordinates":[[[8.1579,11.1155],[8.2143,11.0266],[8.2503,10.9366],[8.1832,10.896],[8.1266,10.809],[8.0633,10.781],[8.0888,10.6813],[8.2349,10.6662],[8.2592,10.5891],[8.3067,10.5771],[8.3203,10.4938],[8.4162,10.4442],[8.3344,10.6264],[8.3695,10.7069],[8.4141,10.7366],[8.4812,10.7159],[8.5716,10.7483],[8.5631,10.8165],[8.585,10.8615],[8.5715,10.9219],[8.6148,11.0177],[8.6073,11.0712],[8.506,11.1322],[8.4085,11.1102],[8.4017,11.1539],[8.3195,11.1847],[8.2887,11.1054],[8.1579,11.1155]]]},"properties":{"name":"KUBAU","state":"18","code":"18/15"}},{"type":"Feature","geometry":{"type":"Polygon","coordinates":[[[7.6247,11.2163],[7.7562,11.1987],[7.8126,11.1535],[7.8413,11.1993],[7.8129,11.2032],[7.8055,11.3717],[7.7507,11.3714],[7.7062,11.31],[7.6187,11.2777],[7.6247,11.2163]]]},"properties":{"name":"KUDAN","state":"18","code":"18/16"}},{"type":"Feature","geometry":{"type":"Polygon","coordinates":[[[8.6796,10.0111],[8.672,10.1462],[8.6861,10.2112],[8.7343,10.2751],[8.7993,10.3029],[8.8183,10.3804],[8.7492,10.4407],[8.7767,10.4795],[8.7832,10.597],[8.7111,10.5434],[8.6496,10.6241],[8.5063,10.6505],[8.4812,10.7159],[8.4141,10.7366],[8.3695,10.7069],[8.3344,10.6264],[8.4162,10.4442],[8.3305,10.3539],[8.3794,10.2957],[8.4395,10.1761],[8.5009,10.0922],[8.4343,9.998],[8.4342,9.994],[8.5385,10.0323],[8.6107,10.0012],[8.6796,10.0111]]]},"properties":{"name":"LERE","state":"18","code":"18/17"}},{"type":"Feature","geometry":{"type":"Polygon","coordinates":[[[7.9565,11.4674],[7.8789,11.3862],[7.8055,11.3717],[7.8129,11.2032],[7.8413,11.1993],[7.9929,11.233],[8.0479,11.1956],[8.1034,11.2869],[8.0649,11.2969],[7.9757,11.4014],[7.9565,11.4674]]]},"properties":{"name":"MAKARFI","state":"18","code":"18/18"}},{"type":"Feature","geometry":{"type":"Polygon","coordinates":[[[7.6457,11.1308],[7.7196,11.0942],[7.7727,11.137],[7.8126,11.1535],[7.7562,11.1987],[7.6247,11.2163],[7.6022,11.1799],[7.6457,11.1308]]]},"properties":{"name":"SABON GARI","state":"18","code":"18/19"}},{"type":"Feature","geometry":{"type":"Polygon","coordinates":[[[8.0872,9.2307],[8.0616,9.0521],[8.1376,9.0362],[8.1919,9.0524],[8.2328,9.1048],[8.2584,9.1829],[8.3456,9.1939],[8.3873,9.1757],[8.5333,9.0044],[8.6207,9.1149],[8.6498,9.1731],[8.6942,9.3223],[8.6954,9.3784],[8.6484,9.3956],[8.5778,9.4992],[8.5159,9.4934],[8.4477,9.4342],[8.4128,9.3694],[8.247,9.2394],[8.1304,9.2154],[8.0872,9.2307]]]},"properties":{"name":"SANGA","state":"18","code":"18/20"}},{"type":"Feature","geometry":{"type":"Polygon","coordinates":[[[7.8894,10.678],[7.9477,10.7146],[8.0888,10.6813],[8.0633,10.781],[8.1266,10.809],[8.1832,10.896],[8.2503,10.9366],[8.2143,11.0266],[8.1579,11.1155],[8.0479,11.1956],[7.9929,11.233],[7.8413,11.1993],[7.8126,11.1535],[7.7727,11.137],[7.8202,11.0353],[7.7919,10.9226],[7.8339,10.8731],[7.8156,10.8307],[7.8894,10.678]]]},"properties":{"name":"SOBA","state":"18","code":"18/21"}},{"type":"Feature","geometry":{"type":"Polygon","coordinates":[[[8.1648,9.5511],[8.2271,9.505],[8.2451,9.5588],[8.3118,9.6124],[8.3651,9.7078],[8.4864,9.6918],[8.5011,9.7409],[8.4847,9.7641],[8.5096,9.8651],[8.4435,9.8778],[8.4202,9.918],[8.4342,9.994],[8.4343,9.998],[8.3582,10.0291],[8.266,10.0314],[8.2401,10.1195],[8.203,10.147],[8.1171,10.2885],[8.039,10.2829],[8.0054,10.1708],[7.9519,10.1312],[8.028,10.04],[8.0423,9.9492],[8.087,9.8611],[8.0228,9.8016],[8.1334,9.6689],[8.1167,9.625],[8.1648,9.5511]]]},"properties":{"name":"ZANGON KATAF","state":"18","code":"18/22"}},{"type":"Feature","geometry":{"type":"Polygon","coordinates":[[[7.5231,10.9706],[7.5718,11.0027],[7.6684,10.9999],[7.7599,10.9703],[7.7919,10.9226],[7.8202,11.0353],[7.7727,11.137],[7.7196,11.0942],[7.6457,11.1308],[7.6056,11.0707],[7.5135,11.0614],[7.5231,10.9706]]]},"properties":{"name":"ZARIA","state":"18","code":"18/23"}},{"type":"Feature","geometry":{"type":"Polygon","coordinates":[[[9.223,11.9896],[9.1987,12.0828],[9.1455,12.0394],[9.0741,12.0735],[8.9457,12.0723],[8.8636,11.9614],[8.8639,11.9118],[8.905,11.9208],[8.957,11.947],[9.0988,11.897],[9.1433,11.8411],[9.202,11.9047],[9.223,11.9896]]]},"properties":{"name":"AJINGI","state":"19","code":"19/01"}},{"type":"Feature","geometry":{"type":"Polygon","coordinates":[[[9.1574,11.7192],[9.0403,11.6905],[9.0023,11.7412],[8.9177,11.718],[8.9611,11.6569],[8.9312,11.6138],[9.0312,11.5561],[9.0774,11.6132],[9.1602,11.6525],[9.1689,11.5736],[9.2242,11.5617],[9.3274,11.5771],[9.2414,11.6454],[9.2258,11.7357],[9.1574,11.7192]]]},"properties":{"name":"ALBASU","state":"19","code":"19/02"}},{"type":"Feature","geometry":{"type":"Polygon","coordinates":[[[7.9992,12.1629],[7.9836,12.0981],[8.0158,12.0599],[8.112,12.0695],[8.1228,12.012],[8.1419,11.9932],[8.2471,12.0215],[8.2508,12.12],[8.2154,12.142],[8.1193,12.2049],[7.9992,12.1629]]]},"properties":{"name":"BAGWAI","state":"19","code":"19/03"}},{"type":"Feature","geometry":{"type":"Polygon","coordinates":[[[8.4331,11.4225],[8.4161,11.5353],[8.4338,11.5768],[8.4042,11.5755],[8.3358,11.6699],[8.3317,11.7274],[8.273,11.7243],[8.2324,11.7125],[8.1922,11.6242],[8.2149,11.5796],[8.2016,11.4803],[8.2728,11.4375],[8.3013,11.3467],[8.3857,11.3766],[8.4331,11.4225]]]},"properties":{"name":"BEBEJI","state":"19","code":"19/04"}},{"type":"Feature","geometry":{"type":"Polygon","coordinates":[[[8.2154,12.142],[8.2912,12.1468],[8.4108,12.2516],[8.4842,12.2605],[8.4335,12.3575],[8.2578,12.347],[8.1516,12.4276],[8.1191,12.4061],[8.0962,12.3147],[8.1404,12.2763],[8.1193,12.2049],[8.2154,12.142]]]},"properties":{"name":"BICHI","state":"19","code":"19/05"}},{"type":"Feature","geometry":{"type":"Polygon","coordinates":[[[8.4626,11.5569],[8.5613,11.6088],[8.5926,11.5894],[8.6721,11.6345],[8.7532,11.6285],[8.7563,11.7262],[8.7678,11.7593],[8.7064,11.7701],[8.7001,11.6761],[8.6183,11.7524],[8.5674,11.7816],[8.5017,11.7588],[8.4715,11.7172],[8.4329,11.6849],[8.4626,11.5569]]]},"properties":{"name":"BUNKURE","state":"19","code":"19/06"}},{"type":"Feature","geometry":{"type":"Polygon","coordinates":[[[8.469,12.0239],[8.5087,12.0003],[8.5221,12.0112],[8.4663,12.0655],[8.469,12.0239]]]},"properties":{"name":"DALA","state":"19","code":"19/07"}},{"type":"Feature","geometry":{"type":"Polygon","coordinates":[[[8.6407,12.593],[8.532,12.6007],[8.5484,12.486],[8.4905,12.4836],[8.4906,12.3906],[8.5663,12.3518],[8.598,12.26],[8.6739,12.306],[8.7326,12.2688],[8.7235,12.2948],[8.7951,12.3823],[8.7638,12.4199],[8.7099,12.4159],[8.6875,12.4828],[8.7191,12.5666],[8.6407,12.593]]]},"properties":{"name":"DANBATA","state":"19","code":"19/08"}},{"type":"Feature","geometry":{"type":"Polygon","coordinates":[[[8.7678,11.7593],[8.8207,11.7982],[8.7075,11.8615],[8.7138,11.9199],[8.6317,11.937],[8.6053,11.8881],[8.5225,11.89],[8.5017,11.8643],[8.5097,11.8461],[8.6005,11.7861],[8.6183,11.7524],[8.7001,11.6761],[8.7064,11.7701],[8.7678,11.7593]]]},"properties":{"name":"DAWAKI KUDU","state":"19","code":"19/09"}},{"type":"Feature","geometry":{"type":"Polygon","coordinates":[[[8.2508,12.12],[8.3385,12.0797],[8.3877,12.0222],[8.4404,12.0909],[8.5075,12.1315],[8.4962,12.2356],[8.5149,12.257],[8.4842,12.2605],[8.4108,12.2516],[8.2912,12.1468],[8.2154,12.142],[8.2508,12.12]]]},"properties":{"name":"DAWAKI TOFA","state":"19","code":"19/10"}},{"type":"Feature","geometry":{"type":"Polygon","coordinates":[[[8.506,11.1322],[8.6073,11.0712],[8.6148,11.0177],[8.5715,10.9219],[8.585,10.8615],[8.5631,10.8165],[8.5716,10.7483],[8.4812,10.7159],[8.5063,10.6505],[8.6496,10.6241],[8.7111,10.5434],[8.7832,10.597],[8.8552,10.7074],[8.7458,10.8572],[8.7667,10.9417],[8.6876,11.0391],[8.6433,11.14],[8.6293,11.2237],[8.5838,11.2213],[8.5187,11.1623],[8.506,11.1322]]]},"properties":{"name":"DOGUWA","state":"19","code":"19/11"}},{"type":"Feature","geometry":{"type":"Polygon","coordinates":[[[8.5221,12.0112],[8.5351,11.9911],[8.5509,12.0531],[8.4663,12.0655],[8.5221,12.0112]]]},"properties":{"name":"FAGGE","state":"19","code":"19/12"}},{"type":"Feature","geometry":{"type":"Polygon","coordinates":[[[8.7235,12.2948],[8.7326,12.2688],[8.7192,12.1559],[8.8204,12.0713],[8.8383,11.974],[8.8636,11.9614],[8.9457,12.0723],[8.9522,12.1853],[8.9099,12.301],[8.8396,12.3082],[8.7879,12.2773],[8.7235,12.2948]]]},"properties":{"name":"GABASAWA","state":"19","code":"19/13"}},{"type":"Feature","geometry":{"type":"Polygon","coordinates":[[[8.9312,11.6138],[8.9049,11.6922],[8.8473,11.7285],[8.7563,11.7262],[8.7532,11.6285],[8.7717,11.4704],[8.7861,11.3952],[8.9167,11.5739],[9.0331,11.528],[9.0312,11.5561],[8.9312,11.6138]]]},"properties":{"name":"GARKO","state":"19","code":"19/14"}},{"type":"Feature","geometry":{"type":"Polygon","coordinates":[[[8.4338,11.5768],[8.4626,11.5569],[8.4329,11.6849],[8.4715,11.7172],[8.379,11.7577],[8.3317,11.7274],[8.3358,11.6699],[8.4042,11.5755],[8.4338,11.5768]]]},"properties":{"name":"GARUN MALAM","state":"19","code":"19/15"}},{"type":"Feature","geometry":{"type":"Polygon","coordinates":[[[9.202,11.9047],[9.1433,11.8411],[9.0988,11.897],[8.957,11.947],[8.905,11.9208],[8.9483,11.8884],[8.8861,11.8073],[8.9177,11.718],[9.0023,11.7412],[9.0403,11.6905],[9.1574,11.7192],[9.1439,11.8266],[9.1871,11.8346],[9.202,11.9047]]]},"properties":{"name":"GAYA","state":"19","code":"19/16"}},{"type":"Feature","geometry":{"type":"Polygon","coordinates":[[[8.7192,12.1559],[8.6471,12.1349],[8.6374,12.0987],[8.589,12.0343],[8.5988,11.9703],[8.6319,11.9624],[8.708,12.0061],[8.736,11.962],[8.8383,11.974],[8.8204,12.0713],[8.7192,12.1559]]]},"properties":{"name":"GEZAWA","state":"19","code":"19/17"}},{"type":"Feature","geometry":{"type":"Polygon","coordinates":[[[8.469,12.0239],[8.4444,11.9714],[8.5109,11.9593],[8.5087,12.0003],[8.469,12.0239]]]},"properties":{"name":"GWALE","state":"19","code":"19/18"}},{"type":"Feature","geometry":{"type":"Polygon","coordinates":[[[7.853,11.8243],[7.8575,11.7949],[8.0262,11.8333],[8.0768,11.8798],[8.0296,11.9791],[7.9057,11.966],[7.8656,12.0214],[7.8293,11.9686],[7.8651,11.8735],[7.853,11.8243]]]},"properties":{"name":"GWARZO","state":"19","code":"19/19"}},{"type":"Feature","geometry":{"type":"Polygon","coordinates":[[[8.1228,12.012],[8.0296,11.9791],[8.0768,11.8798],[8.1203,11.8592],[8.1411,11.7902],[8.2563,11.789],[8.2821,11.8213],[8.2616,11.8722],[8.1419,11.9932],[8.1228,12.012]]]},"properties":{"name":"KABO","state":"19","code":"19/20"}},{"type":"Feature","geometry":{"type":"Polygon","coordinates":[[[8.5087,12.0003],[8.5109,11.9593],[8.5305,11.9672],[8.5345,11.9895],[8.5351,11.9911],[8.5221,12.0112],[8.5087,12.0003]]]},"properties":{"name":"KANO MUNICIPAL","state":"19","code":"19/21"}},{"type":"Feature","geometry":{"type":"Polygon","coordinates":[[[7.8575,11.7949],[7.901,11.6496],[7.9539,11.6553],[8.0279,11.6934],[8.1411,11.7902],[8.1203,11.8592],[8.0768,11.8798],[8.0262,11.8333],[7.8575,11.7949]]]},"properties":{"name":"KARAYE","state":"19","code":"19/22"}},{"type":"Feature","geometry":{"type":"Polygon","coordinates":[[[8.6721,11.6345],[8.6449,11.6103],[8.623,11.4872],[8.5625,11.419],[8.6146,11.3496],[8.717,11.4078],[8.7717,11.4704],[8.7532,11.6285],[8.6721,11.6345]]]},"properties":{"name":"KIBIYA","state":"19","code":"19/23"}},{"type":"Feature","geometry":{"type":"Polygon","coordinates":[[[8.2644,11.3132],[8.3013,11.3467],[8.2728,11.4375],[8.2016,11.4803],[8.2149,11.5796],[8.1922,11.6242],[8.2324,11.7125],[8.273,11.7243],[8.2563,11.789],[8.1411,11.7902],[8.0279,11.6934],[7.9539,11.6553],[7.9909,11.5406],[8.0358,11.4934],[8.1501,11.5192],[8.1433,11.4203],[8.2068,11.3187],[8.2644,11.3132]]]},"properties":{"name":"KIRU","state":"19","code":"19/24"}},{"type":"Feature","geometry":{"type":"Polygon","coordinates":[[[8.6317,11.937],[8.6319,11.9624],[8.5988,11.9703],[8.5954,11.9619],[8.5305,11.9672],[8.5109,11.9593],[8.4444,11.9714],[8.4028,11.9475],[8.4045,11.9308],[8.4068,11.9057],[8.5017,11.8643],[8.5225,11.89],[8.6053,11.8881],[8.6317,11.937]]]},"properties":{"name":"KUMBOTSO","state":"19","code":"19/25"}},{"type":"Feature","geometry":{"type":"Polygon","coordinates":[[[8.2462,12.5944],[8.1814,12.5617],[8.1567,12.4403],[8.1082,12.4164],[8.1191,12.4061],[8.1516,12.4276],[8.2578,12.347],[8.4335,12.3575],[8.3656,12.4317],[8.3111,12.5077],[8.2886,12.5999],[8.2462,12.5944]]]},"properties":{"name":"KUNCHI","state":"19","code":"19/26"}},{"type":"Feature","geometry":{"type":"Polygon","coordinates":[[[8.6183,11.7524],[8.6005,11.7861],[8.5097,11.8461],[8.4423,11.8466],[8.379,11.7577],[8.4715,11.7172],[8.5017,11.7588],[8.5674,11.7816],[8.6183,11.7524]]]},"properties":{"name":"KURA","state":"19","code":"19/27"}},{"type":"Feature","geometry":{"type":"Polygon","coordinates":[[[8.3317,11.7274],[8.379,11.7577],[8.4423,11.8466],[8.5097,11.8461],[8.5017,11.8643],[8.4068,11.9057],[8.2821,11.8213],[8.2563,11.789],[8.273,11.7243],[8.3317,11.7274]]]},"properties":{"name":"MADOBI","state":"19","code":"19/28"}},{"type":"Feature","geometry":{"type":"Polygon","coordinates":[[[8.4584,12.5869],[8.3656,12.4317],[8.4335,12.3575],[8.4842,12.2605],[8.5149,12.257],[8.598,12.26],[8.5663,12.3518],[8.4906,12.3906],[8.4905,12.4836],[8.5484,12.486],[8.532,12.6007],[8.4584,12.5869]]]},"properties":{"name":"MAKODA","state":"19","code":"19/29"}},{"type":"Feature","geometry":{"type":"Polygon","coordinates":[[[8.598,12.26],[8.5149,12.257],[8.4962,12.2356],[8.5075,12.1315],[8.5804,12.0958],[8.6374,12.0987],[8.6471,12.1349],[8.7192,12.1559],[8.7326,12.2688],[8.6739,12.306],[8.598,12.26]]]},"properties":{"name":"MINJIBIR","state":"19","code":"19/30"}},{"type":"Feature","geometry":{"type":"Polygon","coordinates":[[[8.5351,11.9911],[8.5345,11.9895],[8.5954,11.9619],[8.5988,11.9703],[8.589,12.0343],[8.5509,12.0531],[8.5351,11.9911]]]},"properties":{"name":"NASARAWA","state":"19","code":"19/31"}},{"type":"Feature","geometry":{"type":"Polygon","coordinates":[[[8.4331,11.4225],[8.5619,11.342],[8.6146,11.3496],[8.5625,11.419],[8.623,11.4872],[8.6449,11.6103],[8.6721,11.6345],[8.5926,11.5894],[8.5613,11.6088],[8.4626,11.5569],[8.4338,11.5768],[8.4161,11.5353],[8.4331,11.4225]]]},"properties":{"name":"RANO","state":"19","code":"19/32"}},{"type":"Feature","geometry":{"type":"Polygon","coordinates":[[[8.1419,11.9932],[8.2616,11.8722],[8.2821,11.8213],[8.4068,11.9057],[8.4045,11.9308],[8.3207,11.9589],[8.2471,12.0215],[8.1419,11.9932]]]},"properties":{"name":"RIMIN GADO","state":"19","code":"19/33"}},{"type":"Feature","geometry":{"type":"Polygon","coordinates":[[[8.0358,11.4934],[7.9909,11.5406],[7.9539,11.6553],[7.901,11.6496],[7.7669,11.6286],[7.7049,11.5925],[7.6796,11.5237],[7.6952,11.4315],[7.7507,11.3714],[7.8055,11.3717],[7.8789,11.3862],[7.9565,11.4674],[8.0358,11.4934]]]},"properties":{"name":"ROGO","state":"19","code":"19/34"}},{"type":"Feature","geometry":{"type":"Polygon","coordinates":[[[7.9992,12.1629],[7.9451,12.178],[7.8764,12.2352],[7.8632,12.2326],[7.8552,12.1471],[7.8798,12.0443],[7.8656,12.0214],[7.9057,11.966],[8.0296,11.9791],[8.1228,12.012],[8.112,12.0695],[8.0158,12.0599],[7.9836,12.0981],[7.9992,12.1629]]]},"properties":{"name":"SHANONO","state":"19","code":"19/35"}},{"type":"Feature","geometry":{"type":"Polygon","coordinates":[[[8.7667,10.9417],[8.8178,11.0969],[8.8934,11.1171],[8.9258,11.1803],[9.0267,11.2771],[9.1302,11.3288],[9.0313,11.4536],[9.0331,11.528],[8.9167,11.5739],[8.7861,11.3952],[8.7794,11.3137],[8.7055,11.2544],[8.7162,11.214],[8.6835,11.1394],[8.6433,11.14],[8.6876,11.0391],[8.7667,10.9417]]]},"properties":{"name":"SUMAILA","state":"19","code":"19/36"}},{"type":"Feature","geometry":{"type":"Polygon","coordinates":[[[9.3603,11.5608],[9.3274,11.5771],[9.2242,11.5617],[9.1689,11.5736],[9.1602,11.6525],[9.0774,11.6132],[9.0312,11.5561],[9.0331,11.528],[9.0313,11.4536],[9.1302,11.3288],[9.195,11.3266],[9.23,11.4457],[9.3603,11.5608]]]},"properties":{"name":"TAKAI","state":"19","code":"19/37"}},{"type":"Feature","geometry":{"type":"Polygon","coordinates":[[[8.5305,11.9672],[8.5954,11.9619],[8.5345,11.9895],[8.5305,11.9672]]]},"properties":{"name":"TARAUNI","state":"19","code":"19/38"}},{"type":"Feature","geometry":{"type":"Polygon","coordinates":[[[8.2471,12.0215],[8.3207,11.9589],[8.4045,11.9308],[8.4028,11.9475],[8.3877,12.0222],[8.3385,12.0797],[8.2508,12.12],[8.2471,12.0215]]]},"properties":{"name":"TOFA","state":"19","code":"19/39"}},{"type":"Feature","geometry":{"type":"Polygon","coordinates":[[[8.1193,12.2049],[8.1404,12.2763],[8.0962,12.3147],[8.1191,12.4061],[8.1082,12.4164],[8.0479,12.4126],[7.9027,12.3325],[7.8645,12.2807],[7.8764,12.2352],[7.9451,12.178],[7.9992,12.1629],[8.1193,12.2049]]]},"properties":{"name":"TSANYAWA","state":"19","code":"19/40"}},{"type":"Feature","geometry":{"type":"Polygon","coordinates":[[[8.5187,11.1623],[8.5838,11.2213],[8.6293,11.2237],[8.6433,11.14],[8.6835,11.1394],[8.7162,11.214],[8.7055,11.2544],[8.7794,11.3137],[8.7861,11.3952],[8.7717,11.4704],[8.717,11.4078],[8.6146,11.3496],[8.5619,11.342],[8.4331,11.4225],[8.3857,11.3766],[8.3013,11.3467],[8.2644,11.3132],[8.3252,11.2272],[8.4338,11.2266],[8.4619,11.1718],[8.5187,11.1623]]]},"properties":{"name":"TUDUN WADA","state":"19","code":"19/41"}},{"type":"Feature","geometry":{"type":"Polygon","coordinates":[[[8.4663,12.0655],[8.5509,12.0531],[8.589,12.0343],[8.6374,12.0987],[8.5804,12.0958],[8.5075,12.1315],[8.4404,12.0909],[8.3877,12.0222],[8.4028,11.9475],[8.4444,11.9714],[8.469,12.0239],[8.4663,12.0655]]]},"properties":{"name":"UNGOGO","state":"19","code":"19/42"}},{"type":"Feature","geometry":{"type":"Polygon","coordinates":[[[8.8636,11.9614],[8.8383,11.974],[8.736,11.962],[8.708,12.0061],[8.6319,11.9624],[8.6317,11.937],[8.7138,11.9199],[8.7075,11.8615],[8.8207,11.7982],[8.8723,11.8668],[8.8639,11.9118],[8.8636,11.9614]]]},"properties":{"name":"WARAWA","state":"19","code":"19/43"}},{"type":"Feature","geometry":{"type":"Polygon","coordinates":[[[8.8639,11.9118],[8.8723,11.8668],[8.8207,11.7982],[8.7678,11.7593],[8.7563,11.7262],[8.8473,11.7285],[8.9049,11.6922],[8.9312,11.6138],[8.9611,11.6569],[8.9177,11.718],[8.8861,11.8073],[8.9483,11.8884],[8.905,11.9208],[8.8639,11.9118]]]},"properties":{"name":"WUDIL","state":"19","code":"19/44"}},{"type":"Feature","geometry":{"type":"Polygon","coordinates":[[[7.5072,11.4903],[7.5634,11.5088],[7.5898,11.6352],[7.5317,11.6574],[7.4503,11.6982],[7.4054,11.8073],[7.3022,11.8621],[7.284,11.7524],[7.3379,11.6684],[7.3044,11.5662],[7.3551,11.5137],[7.4008,11.5269],[7.4563,11.5443],[7.5072,11.4903]]]},"properties":{"name":"BAKORI","state":"20","code":"20/01"}},{"type":"Feature","geometry":{"type":"Polygon","coordinates":[[[7.4126,12.8634],[7.4814,12.8587],[7.5335,12.6963],[7.581,12.721],[7.593,12.7633],[7.6645,12.8283],[7.6477,12.8591],[7.6872,12.9509],[7.7485,12.9524],[7.7266,13.0367],[7.6896,13.024],[7.6703,12.9747],[7.595,12.9517],[7.5558,12.9766],[7.4805,12.9546],[7.4158,12.8938],[7.4126,12.8634]]]},"properties":{"name":"BATAGARAWA","state":"20","code":"20/02"}},{"type":"Feature","geometry":{"type":"Polygon","coordinates":[[[7.4158,12.8938],[7.3627,13.0003],[7.245,13.0211],[7.1849,13.0006],[7.1057,12.9329],[7.1235,12.8652],[7.1111,12.78],[7.0607,12.7398],[7.043,12.7196],[7.1225,12.7036],[7.1218,12.6688],[7.2743,12.6991],[7.3692,12.6804],[7.3981,12.7104],[7.4126,12.8634],[7.4158,12.8938]]]},"properties":{"name":"BATSARI","state":"20","code":"20/03"}},{"type":"Feature","geometry":{"type":"Polygon","coordinates":[[[9.0473,12.8162],[9.0409,12.8461],[8.9552,12.8556],[8.7079,12.93],[8.7217,12.8648],[8.6716,12.8508],[8.6259,12.8828],[8.5522,12.8318],[8.5891,12.8086],[8.6038,12.7373],[8.6686,12.7195],[8.7011,12.687],[8.7229,12.6699],[8.8646,12.669],[8.9513,12.7381],[8.9829,12.8068],[9.0473,12.8162]]]},"properties":{"name":"BAURE","state":"20","code":"20/04"}},{"type":"Feature","geometry":{"type":"Polygon","coordinates":[[[7.984,12.5771],[7.9562,12.6481],[7.9632,12.731],[7.9998,12.76],[8.0181,12.8433],[7.9378,12.8466],[7.8864,12.7952],[7.8244,12.7892],[7.797,12.8261],[7.7881,12.7085],[7.8003,12.6249],[7.9317,12.5728],[7.984,12.5771]]]},"properties":{"name":"BINDAWA","state":"20","code":"20/05"}},{"type":"Feature","geometry":{"type":"Polygon","coordinates":[[[7.5335,12.6963],[7.6249,12.6178],[7.6155,12.5662],[7.6432,12.5416],[7.6414,12.4245],[7.6802,12.4129],[7.734,12.4548],[7.7107,12.5793],[7.8003,12.6249],[7.7881,12.7085],[7.7252,12.7469],[7.6802,12.7164],[7.6301,12.745],[7.581,12.721],[7.5335,12.6963]]]},"properties":{"name":"CHARANCHI","state":"20","code":"20/06"}},{"type":"Feature","geometry":{"type":"Polygon","coordinates":[[[7.2896,11.2843],[7.3083,11.2929],[7.309,11.4583],[7.2487,11.4982],[7.1898,11.5007],[7.1767,11.5763],[7.1078,11.5509],[7.1327,11.3575],[7.1948,11.2576],[7.2896,11.2843]]]},"properties":{"name":"DANDUME","state":"20","code":"20/07"}},{"type":"Feature","geometry":{"type":"Polygon","coordinates":[[[7.6187,11.2777],[7.7062,11.31],[7.7507,11.3714],[7.6952,11.4315],[7.5883,11.3913],[7.498,11.4461],[7.5072,11.4903],[7.4563,11.5443],[7.4008,11.5269],[7.39,11.3702],[7.4725,11.376],[7.6187,11.2777]]]},"properties":{"name":"DANJA","state":"20","code":"20/08"}},{"type":"Feature","geometry":{"type":"Polygon","coordinates":[[[7.5252,12.1074],[7.5422,12.2685],[7.3998,12.2636],[7.3346,12.32],[7.2641,12.3475],[7.1965,12.3395],[7.1716,12.4514],[7.0659,12.4317],[7.0933,12.2826],[7.1504,12.2316],[7.1568,12.1851],[7.1172,12.094],[7.1303,12.0684],[7.2537,12.1019],[7.2796,12.1536],[7.3587,12.1178],[7.4344,12.1424],[7.4943,12.0855],[7.5252,12.1074]]]},"properties":{"name":"DAN MUSA","state":"20","code":"20/09"}},{"type":"Feature","geometry":{"type":"Polygon","coordinates":[[[8.1721,13.0128],[8.2214,12.9625],[8.2506,12.8799],[8.3432,12.9205],[8.366,13.0171],[8.3105,13.0564],[8.2334,13.008],[8.1721,13.0128]]]},"properties":{"name":"DAURA","state":"20","code":"20/10"}},{"type":"Feature","geometry":{"type":"Polygon","coordinates":[[[8.2421,12.8261],[8.2506,12.8799],[8.2214,12.9625],[8.1721,13.0128],[8.161,13.0385],[8.0583,13.0089],[8.0639,12.9396],[8.0839,12.9237],[8.1083,12.8048],[8.1416,12.811],[8.2421,12.8261]]]},"properties":{"name":"DUTSI","state":"20","code":"20/11"}},{"type":"Feature","geometry":{"type":"Polygon","coordinates":[[[7.6155,12.5662],[7.468,12.5606],[7.4044,12.5255],[7.4213,12.3938],[7.4033,12.337],[7.3346,12.32],[7.3998,12.2636],[7.5422,12.2685],[7.5157,12.3666],[7.6091,12.343],[7.6414,12.4245],[7.6432,12.5416],[7.6155,12.5662]]]},"properties":{"name":"DUTSIN-MA","state":"20","code":"20/12"}},{"type":"Feature","geometry":{"type":"Polygon","coordinates":[[[7.3022,11.8621],[7.2466,11.9326],[7.1408,11.9113],[7.1418,11.8493],[7.0426,11.7904],[7.0173,11.8156],[6.9099,11.7858],[6.8552,11.6419],[6.8544,11.5952],[6.904,11.5532],[6.9011,11.4918],[7.0739,11.5624],[7.1078,11.5509],[7.1767,11.5763],[7.236,11.5889],[7.3044,11.5662],[7.3379,11.6684],[7.284,11.7524],[7.3022,11.8621]]]},"properties":{"name":"FASKARI","state":"20","code":"20/13"}},{"type":"Feature","geometry":{"type":"Polygon","coordinates":[[[7.39,11.3702],[7.4008,11.5269],[7.3551,11.5137],[7.3044,11.5662],[7.236,11.5889],[7.1767,11.5763],[7.1898,11.5007],[7.2487,11.4982],[7.309,11.4583],[7.3083,11.2929],[7.2896,11.2843],[7.3578,11.2643],[7.39,11.3702]]]},"properties":{"name":"FUNTUA","state":"20","code":"20/14"}},{"type":"Feature","geometry":{"type":"Polygon","coordinates":[[[8.1416,12.811],[8.1083,12.8048],[8.0979,12.7681],[8.0243,12.7272],[7.9632,12.731],[7.9562,12.6481],[7.984,12.5771],[8.0428,12.5713],[8.0588,12.4945],[8.0479,12.4126],[8.1082,12.4164],[8.1567,12.4403],[8.1814,12.5617],[8.2462,12.5944],[8.1904,12.624],[8.16,12.684],[8.1851,12.7325],[8.1416,12.811]]]},"properties":{"name":"INGAWA","state":"20","code":"20/15"}},{"type":"Feature","geometry":{"type":"Polygon","coordinates":[[[7.5558,12.9766],[7.6005,13.0615],[7.6004,13.1189],[7.6461,13.2064],[7.6147,13.2363],[7.3797,13.0997],[7.2189,13.1256],[7.0906,12.9953],[7.0513,12.9955],[7.0662,12.8896],[7.0607,12.7398],[7.1111,12.78],[7.1235,12.8652],[7.1057,12.9329],[7.1849,13.0006],[7.245,13.0211],[7.3627,13.0003],[7.4158,12.8938],[7.4805,12.9546],[7.5558,12.9766]]]},"properties":{"name":"JIBIA","state":"20","code":"20/16"}},{"type":"Feature","geometry":{"type":"Polygon","coordinates":[[[7.853,11.8243],[7.7111,11.8521],[7.6532,11.71],[7.5317,11.6574],[7.5898,11.6352],[7.5634,11.5088],[7.5072,11.4903],[7.498,11.4461],[7.5883,11.3913],[7.6952,11.4315],[7.6796,11.5237],[7.7049,11.5925],[7.7669,11.6286],[7.901,11.6496],[7.8575,11.7949],[7.853,11.8243]]]},"properties":{"name":"KAFUR","state":"20","code":"20/17"}},{"type":"Feature","geometry":{"type":"Polygon","coordinates":[[[7.7266,13.0367],[7.7704,13.0295],[7.8425,13.0822],[7.8639,13.0901],[7.9421,13.1825],[7.9327,13.2465],[7.8612,13.2401],[7.8123,13.3089],[7.8197,13.3523],[7.6147,13.2363],[7.6461,13.2064],[7.6004,13.1189],[7.6005,13.0615],[7.6896,13.024],[7.7266,13.0367]]]},"properties":{"name":"KAITA","state":"20","code":"20/18"}},{"type":"Feature","geometry":{"type":"Polygon","coordinates":[[[7.4054,11.8073],[7.4739,11.7959],[7.6425,11.845],[7.6367,11.9102],[7.5712,11.9621],[7.4943,12.0855],[7.4344,12.1424],[7.3587,12.1178],[7.2796,12.1536],[7.2537,12.1019],[7.1303,12.0684],[7.2466,11.9326],[7.3022,11.8621],[7.4054,11.8073]]]},"properties":{"name":"KANKARA","state":"20","code":"20/19"}},{"type":"Feature","geometry":{"type":"Polygon","coordinates":[[[7.8764,12.2352],[7.8645,12.2807],[7.9027,12.3325],[7.8782,12.4439],[7.8495,12.4749],[7.9385,12.5386],[7.9317,12.5728],[7.8003,12.6249],[7.7107,12.5793],[7.734,12.4548],[7.6802,12.4129],[7.6414,12.4245],[7.6091,12.343],[7.7169,12.303],[7.7728,12.3031],[7.7989,12.264],[7.8632,12.2326],[7.8764,12.2352]]]},"properties":{"name":"KANKIA","state":"20","code":"20/20"}},{"type":"Feature","geometry":{"type":"Polygon","coordinates":[[[7.6896,13.024],[7.6005,13.0615],[7.5558,12.9766],[7.595,12.9517],[7.6703,12.9747],[7.6896,13.024]]]},"properties":{"name":"KATSINA","state":"20","code":"20/21"}},{"type":"Feature","geometry":{"type":"Polygon","coordinates":[[[7.4126,12.8634],[7.3981,12.7104],[7.3692,12.6804],[7.4044,12.5255],[7.468,12.5606],[7.6155,12.5662],[7.6249,12.6178],[7.5335,12.6963],[7.4814,12.8587],[7.4126,12.8634]]]},"properties":{"name":"KURFI","state":"20","code":"20/22"}},{"type":"Feature","geometry":{"type":"Polygon","coordinates":[[[8.0479,12.4126],[8.0588,12.4945],[8.0428,12.5713],[7.984,12.5771],[7.9317,12.5728],[7.9385,12.5386],[7.8495,12.4749],[7.8782,12.4439],[7.9027,12.3325],[8.0479,12.4126]]]},"properties":{"name":"KUSADA","state":"20","code":"20/23"}},{"type":"Feature","geometry":{"type":"Polygon","coordinates":[[[8.366,13.0171],[8.4134,13.038],[8.4344,13.0819],[8.4086,13.0883],[8.2872,13.1983],[8.2261,13.2236],[8.1222,13.3036],[8.062,13.3168],[8.1207,13.164],[8.115,13.1133],[8.161,13.0385],[8.1721,13.0128],[8.2334,13.008],[8.3105,13.0564],[8.366,13.0171]]]},"properties":{"name":"MAI'ADUA","state":"20","code":"20/24"}},{"type":"Feature","geometry":{"type":"Polygon","coordinates":[[[7.8656,12.0214],[7.7369,12.0089],[7.7083,12.0421],[7.6202,12.0422],[7.5712,11.9621],[7.6367,11.9102],[7.6425,11.845],[7.4739,11.7959],[7.4054,11.8073],[7.4503,11.6982],[7.5317,11.6574],[7.6532,11.71],[7.7111,11.8521],[7.853,11.8243],[7.8651,11.8735],[7.8293,11.9686],[7.8656,12.0214]]]},"properties":{"name":"MALUFASHI","state":"20","code":"20/25"}},{"type":"Feature","geometry":{"type":"Polygon","coordinates":[[[7.9632,12.731],[8.0243,12.7272],[8.0979,12.7681],[8.1083,12.8048],[8.0839,12.9237],[8.0639,12.9396],[7.9776,12.9323],[7.8759,13.0393],[7.8639,13.0901],[7.8425,13.0822],[7.7979,13.0278],[7.7935,12.9377],[7.7657,12.8793],[7.797,12.8261],[7.8244,12.7892],[7.8864,12.7952],[7.9378,12.8466],[8.0181,12.8433],[7.9998,12.76],[7.9632,12.731]]]},"properties":{"name":"MANI","state":"20","code":"20/26"}},{"type":"Feature","geometry":{"type":"Polygon","coordinates":[[[8.161,13.0385],[8.115,13.1133],[8.1207,13.164],[8.062,13.3168],[7.8197,13.3523],[7.8123,13.3089],[7.8612,13.2401],[7.9327,13.2465],[7.9421,13.1825],[7.8639,13.0901],[7.8759,13.0393],[7.9776,12.9323],[8.0639,12.9396],[8.0583,13.0089],[8.161,13.0385]]]},"properties":{"name":"MASHI","state":"20","code":"20/27"}},{"type":"Feature","geometry":{"type":"Polygon","coordinates":[[[7.5252,12.1074],[7.6692,12.1464],[7.7984,12.2182],[7.7989,12.264],[7.7728,12.3031],[7.7169,12.303],[7.6091,12.343],[7.5157,12.3666],[7.5422,12.2685],[7.5252,12.1074]]]},"properties":{"name":"MATAZU","state":"20","code":"20/28"}},{"type":"Feature","geometry":{"type":"Polygon","coordinates":[[[7.8632,12.2326],[7.7989,12.264],[7.7984,12.2182],[7.6692,12.1464],[7.5252,12.1074],[7.4943,12.0855],[7.5712,11.9621],[7.6202,12.0422],[7.7083,12.0421],[7.7369,12.0089],[7.8656,12.0214],[7.8798,12.0443],[7.8552,12.1471],[7.8632,12.2326]]]},"properties":{"name":"MUSAWA","state":"20","code":"20/29"}},{"type":"Feature","geometry":{"type":"Polygon","coordinates":[[[7.581,12.721],[7.6301,12.745],[7.6802,12.7164],[7.7252,12.7469],[7.7881,12.7085],[7.797,12.8261],[7.7657,12.8793],[7.7935,12.9377],[7.7979,13.0278],[7.8425,13.0822],[7.7704,13.0295],[7.7266,13.0367],[7.7485,12.9524],[7.6872,12.9509],[7.6477,12.8591],[7.6645,12.8283],[7.593,12.7633],[7.581,12.721]]]},"properties":{"name":"RIMI","state":"20","code":"20/30"}},{"type":"Feature","geometry":{"type":"Polygon","coordinates":[[[7.1616,11.1309],[7.201,11.1534],[7.1948,11.2576],[7.1327,11.3575],[7.1078,11.5509],[7.0739,11.5624],[6.9011,11.4918],[6.8894,11.3836],[7.0062,11.3618],[7.0087,11.2938],[6.9677,11.2452],[7.0767,11.1953],[7.1616,11.1309]]]},"properties":{"name":"SABUWA","state":"20","code":"20/31"}},{"type":"Feature","geometry":{"type":"Polygon","coordinates":[[[7.043,12.7196],[6.989,12.6734],[7.0445,12.6589],[7.0659,12.4317],[7.1716,12.4514],[7.1965,12.3395],[7.2641,12.3475],[7.3346,12.32],[7.4033,12.337],[7.4213,12.3938],[7.4044,12.5255],[7.3692,12.6804],[7.2743,12.6991],[7.1218,12.6688],[7.1225,12.7036],[7.043,12.7196]]]},"properties":{"name":"SAFANA","state":"20","code":"20/32"}},{"type":"Feature","geometry":{"type":"Polygon","coordinates":[[[8.3984,12.8259],[8.5021,12.8338],[8.4642,12.8445],[8.4467,12.9539],[8.4134,13.038],[8.366,13.0171],[8.3432,12.9205],[8.2506,12.8799],[8.2421,12.8261],[8.3984,12.8259]]]},"properties":{"name":"SANDAMU","state":"20","code":"20/33"}},{"type":"Feature","geometry":{"type":"Polygon","coordinates":[[[8.5522,12.8318],[8.6259,12.8828],[8.6716,12.8508],[8.7217,12.8648],[8.7079,12.93],[8.6636,12.9433],[8.615,13.0219],[8.5164,13.0836],[8.4344,13.0819],[8.4134,13.038],[8.4467,12.9539],[8.4642,12.8445],[8.5021,12.8338],[8.5522,12.8318]]]},"properties":{"name":"ZANGO","state":"20","code":"20/34"}},{"type":"Feature","geometry":{"type":"Polygon","coordinates":[[[4.5485,12.3015],[4.4941,12.3478],[4.4749,12.4064],[4.3921,12.4109],[4.404,12.3525],[4.3605,12.3371],[4.3722,12.2842],[4.448,12.2241],[4.5303,12.2396],[4.5485,12.3015]]]},"properties":{"name":"ALIERO","state":"21","code":"21/01"}},{"type":"Feature","geometry":{"type":"Polygon","coordinates":[[[3.7645,12.0992],[3.7968,12.1393],[3.7844,12.2208],[3.8327,12.2852],[3.8264,12.3768],[3.8796,12.4267],[3.9853,12.4681],[3.9937,12.5313],[4.054,12.5562],[4.1735,12.6558],[4.2013,12.6954],[4.3403,12.7666],[4.3972,12.846],[4.4516,12.8548],[4.4696,12.8949],[4.5437,12.9195],[4.4759,13.0006],[4.5547,13.1114],[4.4975,13.16],[4.3744,13.2011],[4.3002,13.2596],[4.1264,13.2497],[4.1431,13.1822],[4.105,12.9964],[3.9528,12.7489],[3.6727,12.5519],[3.6524,12.4865],[3.6661,12.2071],[3.6284,12.1253],[3.7099,12.1455],[3.7645,12.0992]]]},"properties":{"name":"AREWA","state":"21","code":"21/02"}},{"type":"Feature","geometry":{"type":"Polygon","coordinates":[[[4.1735,12.6558],[4.2218,12.6116],[4.3533,12.5574],[4.4474,12.5594],[4.4571,12.62],[4.5671,12.6679],[4.6182,12.6605],[4.6639,12.5886],[4.7575,12.637],[4.7304,12.7021],[4.5842,12.7353],[4.55,12.8026],[4.4516,12.8548],[4.3972,12.846],[4.3403,12.7666],[4.2013,12.6954],[4.1735,12.6558]]]},"properties":{"name":"ARGUNGU","state":"21","code":"21/03"}},{"type":"Feature","geometry":{"type":"Polygon","coordinates":[[[4.4516,12.8548],[4.55,12.8026],[4.5842,12.7353],[4.7304,12.7021],[4.7503,12.7509],[4.8068,12.8195],[4.7752,12.8547],[4.6607,12.9595],[4.7247,13.0495],[4.7022,13.0732],[4.623,13.0701],[4.5547,13.1114],[4.4759,13.0006],[4.5437,12.9195],[4.4696,12.8949],[4.4516,12.8548]]]},"properties":{"name":"AUGIE","state":"21","code":"21/04"}},{"type":"Feature","geometry":{"type":"Polygon","coordinates":[[[4.3141,10.9499],[4.3295,11.0022],[4.3051,11.145],[4.3377,11.1815],[4.2563,11.21],[4.2311,11.2703],[4.1848,11.2906],[4.2008,11.3562],[4.2451,11.3546],[4.3676,11.41],[4.4065,11.4997],[4.3939,11.5578],[4.2469,11.6118],[4.2288,11.6598],[4.1444,11.6615],[4.1059,11.615],[4.0157,11.5616],[3.9893,11.5005],[3.8114,11.5877],[3.6431,11.6648],[3.6275,11.7088],[3.5109,11.67],[3.5107,11.5247],[3.4771,11.4554],[3.4856,11.3134],[3.5649,11.2525],[3.731,11.087],[3.7172,11.0198],[3.77,10.9197],[3.8023,10.9461],[3.9328,10.943],[3.993,11.0165],[4.1004,11.0263],[4.2254,11.0193],[4.2772,10.9544],[4.3141,10.9499]]]},"properties":{"name":"BAGUDO","state":"21","code":"21/05"}},{"type":"Feature","geometry":{"type":"Polygon","coordinates":[[[4.4749,12.4064],[4.4474,12.5594],[4.3533,12.5574],[4.2218,12.6116],[4.1735,12.6558],[4.054,12.5562],[4.0852,12.4877],[4.0609,12.4388],[4.1057,12.3711],[4.171,12.3985],[4.2355,12.332],[4.3605,12.3371],[4.404,12.3525],[4.3921,12.4109],[4.4749,12.4064]]]},"properties":{"name":"BIRNIN KEBBI","state":"21","code":"21/06"}},{"type":"Feature","geometry":{"type":"Polygon","coordinates":[[[3.7645,12.0992],[3.8735,12.092],[3.9387,12.0706],[3.9948,11.9992],[4.1054,12.0739],[4.1182,12.1747],[4.1596,12.2504],[4.1249,12.2613],[4.0038,12.2172],[3.9908,12.3321],[3.9987,12.4052],[3.8796,12.4267],[3.8264,12.3768],[3.8327,12.2852],[3.7844,12.2208],[3.7968,12.1393],[3.7645,12.0992]]]},"properties":{"name":"BUNZA","state":"21","code":"21/07"}},{"type":"Feature","geometry":{"type":"Polygon","coordinates":[[[3.6284,12.1253],[3.6717,11.9756],[3.6187,11.9082],[3.6639,11.7554],[3.6275,11.7088],[3.6431,11.6648],[3.8114,11.5877],[3.8516,11.6283],[3.9835,11.6657],[4.0165,11.7314],[4.0147,11.7861],[3.9693,11.837],[3.9691,11.9811],[3.9948,11.9992],[3.9387,12.0706],[3.8735,12.092],[3.7645,12.0992],[3.7099,12.1455],[3.6284,12.1253]]]},"properties":{"name":"DANDI","state":"21","code":"21/08"}},{"type":"Feature","geometry":{"type":"Polygon","coordinates":[[[4.9883,11.313],[5.1126,11.3433],[5.1419,11.3939],[5.1396,11.5049],[5.1059,11.5501],[4.9358,11.6572],[4.9344,11.7221],[4.8991,11.7087],[4.8026,11.7577],[4.6668,11.6676],[4.5462,11.6344],[4.542,11.5603],[4.4828,11.532],[4.5094,11.4961],[4.5905,11.5324],[4.6377,11.4789],[4.7033,11.4767],[4.7757,11.3994],[4.7915,11.3268],[4.8978,11.3875],[4.9589,11.3693],[4.9883,11.313]]]},"properties":{"name":"FAKAI","state":"21","code":"21/09"}},{"type":"Feature","geometry":{"type":"Polygon","coordinates":[[[4.5485,12.3015],[4.5925,12.3468],[4.5858,12.3889],[4.6298,12.4329],[4.7539,12.3637],[4.7498,12.421],[4.8031,12.4852],[4.7947,12.5754],[4.7575,12.637],[4.6639,12.5886],[4.6182,12.6605],[4.5671,12.6679],[4.4571,12.62],[4.4474,12.5594],[4.4749,12.4064],[4.4941,12.3478],[4.5485,12.3015]]]},"properties":{"name":"GWANDU","state":"21","code":"21/10"}},{"type":"Feature","geometry":{"type":"Polygon","coordinates":[[[4.3605,12.3371],[4.2355,12.332],[4.2445,12.3069],[4.2907,12.2417],[4.2295,12.1939],[4.2022,12.1344],[4.3416,12.1659],[4.3837,12.1418],[4.3663,12.0525],[4.383,11.987],[4.4449,11.9697],[4.468,11.8647],[4.5508,11.8919],[4.5882,12.0388],[4.5523,12.0977],[4.5559,12.2129],[4.5303,12.2396],[4.448,12.2241],[4.3722,12.2842],[4.3605,12.3371]]]},"properties":{"name":"JEGA","state":"21","code":"21/11"}},{"type":"Feature","geometry":{"type":"Polygon","coordinates":[[[3.8796,12.4267],[3.9987,12.4052],[3.9908,12.3321],[4.0038,12.2172],[4.1249,12.2613],[4.1596,12.2504],[4.2445,12.3069],[4.2355,12.332],[4.171,12.3985],[4.1057,12.3711],[4.0609,12.4388],[4.0852,12.4877],[4.054,12.5562],[3.9937,12.5313],[3.9853,12.4681],[3.8796,12.4267]]]},"properties":{"name":"KALGO","state":"21","code":"21/12"}},{"type":"Feature","geometry":{"type":"Polygon","coordinates":[[[4.3377,11.1815],[4.4697,11.1484],[4.517,11.3385],[4.5655,11.4613],[4.5094,11.4961],[4.4828,11.532],[4.4192,11.6142],[4.4273,11.6706],[4.3688,11.747],[4.3006,11.7329],[4.2288,11.6598],[4.2469,11.6118],[4.3939,11.5578],[4.4065,11.4997],[4.3676,11.41],[4.2451,11.3546],[4.2008,11.3562],[4.1848,11.2906],[4.2311,11.2703],[4.2563,11.21],[4.3377,11.1815]]]},"properties":{"name":"KOKO/BESSE","state":"21","code":"21/13"}},{"type":"Feature","geometry":{"type":"Polygon","coordinates":[[[4.1054,12.0739],[4.2012,12.0483],[4.2036,12.0023],[4.2917,11.9],[4.3121,11.8484],[4.2772,11.7986],[4.3006,11.7329],[4.3688,11.747],[4.4364,11.7108],[4.549,11.7955],[4.5508,11.8919],[4.468,11.8647],[4.4449,11.9697],[4.383,11.987],[4.3663,12.0525],[4.3837,12.1418],[4.3416,12.1659],[4.2022,12.1344],[4.2295,12.1939],[4.2907,12.2417],[4.2445,12.3069],[4.1596,12.2504],[4.1182,12.1747],[4.1054,12.0739]]]},"properties":{"name":"MAIYAMA","state":"21","code":"21/14"}},{"type":"Feature","geometry":{"type":"Polygon","coordinates":[[[4.6338,10.6114],[4.5851,10.5639],[4.5101,10.5352],[4.4795,10.4213],[4.4908,10.314],[4.56,10.2681],[4.5674,10.2229],[4.5275,10.143],[4.53,10.1006],[4.6248,10.1027],[4.6465,10.205],[4.697,10.2403],[4.7939,10.2607],[4.8715,10.2183],[4.9465,10.2853],[4.9503,10.3897],[4.932,10.4395],[4.8534,10.4603],[4.8187,10.5071],[4.8237,10.595],[4.7961,10.6293],[4.8257,10.7084],[4.9083,10.6902],[5.101,10.7613],[5.0471,10.825],[5.0253,10.8903],[5.0814,10.9505],[5.0406,11.0519],[4.95,10.9982],[4.8263,10.8822],[4.8261,10.8493],[4.7554,10.7832],[4.7666,10.7233],[4.727,10.6543],[4.7499,10.5853],[4.6338,10.6114]]]},"properties":{"name":"NGASKI","state":"21","code":"21/15"}},{"type":"Feature","geometry":{"type":"Polygon","coordinates":[[[5.3331,11.3564],[5.3485,11.3389],[5.404,11.147],[5.389,11.0375],[5.4473,10.9835],[5.5224,10.9905],[5.5572,10.9475],[5.729,10.9984],[5.8003,11.0825],[5.8679,11.1069],[5.7768,11.1676],[5.6839,11.1846],[5.6035,11.2481],[5.4848,11.2546],[5.4915,11.3416],[5.4138,11.4019],[5.3704,11.4048],[5.3331,11.3564]]]},"properties":{"name":"SAKABA","state":"21","code":"21/16"}},{"type":"Feature","geometry":{"type":"Polygon","coordinates":[[[4.3141,10.9499],[4.3811,10.88],[4.4503,10.8859],[4.5398,10.92],[4.5997,10.8892],[4.6935,10.9191],[4.8263,10.8822],[4.95,10.9982],[5.0406,11.0519],[4.9799,11.0805],[4.9087,11.0819],[4.7461,11.1476],[4.7034,11.2285],[4.7119,11.2971],[4.7915,11.3268],[4.7757,11.3994],[4.7033,11.4767],[4.6377,11.4789],[4.5905,11.5324],[4.5094,11.4961],[4.5655,11.4613],[4.517,11.3385],[4.4697,11.1484],[4.3377,11.1815],[4.3051,11.145],[4.3295,11.0022],[4.3141,10.9499]]]},"properties":{"name":"SHANGA","state":"21","code":"21/17"}},{"type":"Feature","geometry":{"type":"Polygon","coordinates":[[[4.2288,11.6598],[4.3006,11.7329],[4.2772,11.7986],[4.3121,11.8484],[4.2917,11.9],[4.2036,12.0023],[4.2012,12.0483],[4.1054,12.0739],[3.9948,11.9992],[3.9691,11.9811],[3.9693,11.837],[4.0147,11.7861],[4.0165,11.7314],[3.9835,11.6657],[3.8516,11.6283],[3.8114,11.5877],[3.9893,11.5005],[4.0157,11.5616],[4.1059,11.615],[4.1444,11.6615],[4.2288,11.6598]]]},"properties":{"name":"SURU","state":"21","code":"21/18"}},{"type":"Feature","geometry":{"type":"MultiPolygon","coordinates":[[[[5.8679,11.1069],[5.9777,11.167],[6.0159,11.138],[6.1059,11.1833],[6.1357,11.2954],[6.1906,11.3341],[6.2044,11.3837],[6.0796,11.3884],[6.0095,11.4626],[5.9338,11.4366],[5.8268,11.4443],[5.8195,11.6484],[5.7803,11.6839],[5.705,11.688],[5.6697,11.6614],[5.5802,11.6754],[5.5141,11.6648],[5.4972,11.6129],[5.5087,11.4882],[5.406,11.4516],[5.4138,11.4019],[5.4915,11.3416],[5.4848,11.2546],[5.6035,11.2481],[5.6839,11.1846],[5.7768,11.1676],[5.8679,11.1069]]],[[[5.1396,11.5049],[5.1702,11.5561],[5.2691,11.5327],[5.3007,11.5598],[5.3694,11.5513],[5.46,11.6731],[5.4402,11.7088],[5.3759,11.7096],[5.3158,11.7908],[5.2708,11.78],[5.238,11.7559],[5.0516,11.7201],[5.0005,11.748],[4.941,11.7308],[4.9344,11.7221],[4.9358,11.6572],[5.1059,11.5501],[5.1396,11.5049]]]]},"properties":{"name":"WASAGU/DANKO","state":"21","code":"21/19"}},{"type":"Feature","geometry":{"type":"Polygon","coordinates":[[[4.8263,10.8822],[4.6935,10.9191],[4.7204,10.8594],[4.6964,10.7903],[4.6908,10.6629],[4.6338,10.6114],[4.7499,10.5853],[4.727,10.6543],[4.7666,10.7233],[4.7554,10.7832],[4.8261,10.8493],[4.8263,10.8822]]]},"properties":{"name":"YAURI","state":"21","code":"21/20"}},{"type":"Feature","geometry":{"type":"Polygon","coordinates":[[[4.9883,11.313],[5.0054,11.2576],[5.0713,11.2376],[5.2334,11.2182],[5.2497,11.3094],[5.3331,11.3564],[5.3704,11.4048],[5.4138,11.4019],[5.406,11.4516],[5.5087,11.4882],[5.4972,11.6129],[5.5141,11.6648],[5.46,11.6731],[5.3694,11.5513],[5.3007,11.5598],[5.2691,11.5327],[5.1702,11.5561],[5.1396,11.5049],[5.1419,11.3939],[5.1126,11.3433],[4.9883,11.313]]]},"properties":{"name":"ZURU","state":"21","code":"21/21"}},{"type":"Feature","geometry":{"type":"Polygon","coordinates":[[[4.5547,13.1114],[4.623,13.0701],[4.7022,13.0732],[4.7454,13.1051],[4.8538,13.1244],[4.8895,13.0944],[4.9853,13.0847],[4.9661,13.1165],[5.071,13.173],[5.0158,13.1868],[4.9415,13.2581],[4.9648,13.2865],[4.8544,13.3335],[4.7281,13.3509],[4.6954,13.255],[4.6198,13.2483],[4.4975,13.16],[4.5547,13.1114]]]},"properties":{"name":"BINJI","state":"33","code":"33/01"}},{"type":"Feature","geometry":{"type":"Polygon","coordinates":[[[5.2913,12.6225],[5.3535,12.6224],[5.3743,12.6854],[5.3832,12.7265],[5.2753,12.813],[5.2362,12.9316],[5.1982,12.9489],[5.1289,12.9978],[5.1062,12.9311],[5.0579,12.9337],[5.1027,12.8574],[5.0586,12.8345],[5.0852,12.7741],[5.1203,12.8001],[5.1806,12.7652],[5.1998,12.6772],[5.2913,12.6225]]]},"properties":{"name":"BODINGA","state":"33","code":"33/02"}},{"type":"Feature","geometry":{"type":"Polygon","coordinates":[[[5.3743,12.6854],[5.374,12.6208],[5.4476,12.61],[5.5325,12.7842],[5.5758,12.751],[5.5765,12.6793],[5.6373,12.6922],[5.6745,12.7348],[5.5882,12.8041],[5.5422,12.8664],[5.5402,12.981],[5.4483,12.9641],[5.3701,12.9759],[5.2921,13.0305],[5.2474,13.0056],[5.1982,12.9489],[5.2362,12.9316],[5.2753,12.813],[5.3832,12.7265],[5.3743,12.6854]]]},"properties":{"name":"DANGE/SHUNI","state":"33","code":"33/03"}},{"type":"Feature","geometry":{"type":"Polygon","coordinates":[[[5.5587,13.4939],[5.5454,13.569],[5.6422,13.6186],[5.6893,13.6013],[5.702,13.4839],[5.7618,13.507],[5.8,13.577],[5.9154,13.565],[5.924,13.6216],[5.9818,13.7127],[5.6316,13.8363],[5.53,13.8857],[5.4199,13.8597],[5.4519,13.6877],[5.5143,13.652],[5.5247,13.5648],[5.5587,13.4939]]]},"properties":{"name":"GADA","state":"33","code":"33/04"}},{"type":"Feature","geometry":{"type":"Polygon","coordinates":[[[5.5587,13.4939],[5.4853,13.3772],[5.4972,13.3362],[5.5899,13.2872],[5.7121,13.2891],[5.8045,13.3102],[5.8516,13.2911],[5.861,13.2206],[5.722,13.2379],[5.7054,13.1853],[5.7213,13.107],[5.8536,13.1212],[6.0233,13.0854],[5.9832,13.2545],[5.9918,13.3155],[6.0565,13.3942],[6.0113,13.4686],[5.9619,13.4877],[5.9154,13.565],[5.8,13.577],[5.7618,13.507],[5.702,13.4839],[5.6893,13.6013],[5.6422,13.6186],[5.5454,13.569],[5.5587,13.4939]]]},"properties":{"name":"GORONYO","state":"33","code":"33/05"}},{"type":"Feature","geometry":{"type":"Polygon","coordinates":[[[4.4975,13.16],[4.6198,13.2483],[4.6954,13.255],[4.7281,13.3509],[4.7611,13.4467],[4.7638,13.5163],[4.7232,13.5429],[4.7586,13.5951],[4.7043,13.6508],[4.8079,13.7118],[4.8014,13.7687],[4.7084,13.7585],[4.6367,13.7231],[4.3944,13.6535],[4.2324,13.4994],[4.1265,13.4682],[4.1264,13.2497],[4.3002,13.2596],[4.3744,13.2011],[4.4975,13.16]]]},"properties":{"name":"GUDU","state":"33","code":"33/06"}},{"type":"Feature","geometry":{"type":"Polygon","coordinates":[[[5.5247,13.5648],[5.4814,13.4867],[5.3552,13.5008],[5.3723,13.568],[5.3235,13.6167],[5.2808,13.5775],[5.286,13.5204],[5.184,13.52],[5.168,13.4276],[5.119,13.4253],[5.1259,13.3352],[5.0776,13.3034],[5.1347,13.2496],[5.1676,13.3362],[5.2744,13.3316],[5.2961,13.2158],[5.3369,13.2266],[5.3886,13.3052],[5.4295,13.31],[5.4853,13.3772],[5.5587,13.4939],[5.5247,13.5648]]]},"properties":{"name":"GWADABAWA","state":"33","code":"33/07"}},{"type":"Feature","geometry":{"type":"Polygon","coordinates":[[[5.4199,13.8597],[5.3504,13.8341],[5.2813,13.7561],[5.1584,13.7432],[5.1528,13.631],[5.184,13.52],[5.286,13.5204],[5.2808,13.5775],[5.3235,13.6167],[5.3723,13.568],[5.3552,13.5008],[5.4814,13.4867],[5.5247,13.5648],[5.5143,13.652],[5.4519,13.6877],[5.4199,13.8597]]]},"properties":{"name":"ILLELA","state":"33","code":"33/08"}},{"type":"Feature","geometry":{"type":"Polygon","coordinates":[[[6.0233,13.0854],[6.0469,13.0312],[6.1444,13.079],[6.2583,13.1603],[6.3273,13.1796],[6.359,13.1371],[6.5205,13.1218],[6.5289,13.0529],[6.6068,13.0466],[6.6832,13.1072],[6.7928,13.1323],[6.7126,13.3115],[6.6531,13.3709],[6.535,13.3059],[6.4796,13.3175],[6.4167,13.2915],[6.3237,13.3113],[6.2115,13.3045],[6.0565,13.3942],[5.9918,13.3155],[5.9832,13.2545],[6.0233,13.0854]]]},"properties":{"name":"ISA","state":"33","code":"33/09"}},{"type":"Feature","geometry":{"type":"Polygon","coordinates":[[[5.5402,12.981],[5.4788,13.0364],[5.4559,13.1097],[5.4089,13.0808],[5.3613,13.113],[5.3369,13.2266],[5.2961,13.2158],[5.2744,13.3316],[5.1676,13.3362],[5.1347,13.2496],[5.258,13.156],[5.2436,13.0798],[5.2706,13.0652],[5.2921,13.0305],[5.3701,12.9759],[5.4483,12.9641],[5.5402,12.981]]]},"properties":{"name":"KWARE","state":"33","code":"33/10"}},{"type":"Feature","geometry":{"type":"Polygon","coordinates":[[[4.9344,11.7221],[4.941,11.7308],[4.9196,11.7899],[4.9444,11.8808],[4.8667,11.9327],[4.875,12.2297],[4.7032,12.2254],[4.5882,12.0388],[4.5508,11.8919],[4.549,11.7955],[4.4364,11.7108],[4.3688,11.747],[4.4273,11.6706],[4.4192,11.6142],[4.4828,11.532],[4.542,11.5603],[4.5462,11.6344],[4.6668,11.6676],[4.8026,11.7577],[4.8991,11.7087],[4.9344,11.7221]]]},"properties":{"name":"KEBBE","state":"33","code":"33/11"}},{"type":"Feature","geometry":{"type":"Polygon","coordinates":[[[5.5882,12.8041],[5.6347,12.8829],[5.734,12.8268],[5.8131,12.8397],[5.8833,12.8203],[5.9617,12.7547],[6.0341,12.7841],[6.0058,12.9191],[6.0554,12.9667],[6.0469,13.0312],[6.0233,13.0854],[5.8536,13.1212],[5.7213,13.107],[5.7054,13.1853],[5.722,13.2379],[5.6343,13.2566],[5.5222,13.1787],[5.416,13.1467],[5.3613,13.113],[5.4089,13.0808],[5.4559,13.1097],[5.4788,13.0364],[5.5402,12.981],[5.5422,12.8664],[5.5882,12.8041]]]},"properties":{"name":"RABAH","state":"33","code":"33/12"}},{"type":"Feature","geometry":{"type":"Polygon","coordinates":[[[5.9154,13.565],[5.9619,13.4877],[6.0113,13.4686],[6.0565,13.3942],[6.2115,13.3045],[6.3237,13.3113],[6.4167,13.2915],[6.4796,13.3175],[6.535,13.3059],[6.6531,13.3709],[6.5586,13.4778],[6.4953,13.5684],[6.2964,13.679],[6.1557,13.6447],[5.9818,13.7127],[5.924,13.6216],[5.9154,13.565]]]},"properties":{"name":"S/BIRNI","state":"33","code":"33/13"}},{"type":"Feature","geometry":{"type":"Polygon","coordinates":[[[5.0852,12.7741],[5.0843,12.6638],[5.0041,12.6721],[4.9607,12.6362],[4.8676,12.629],[4.873,12.5529],[4.9055,12.4283],[4.9454,12.5045],[5.016,12.5287],[5.0714,12.4765],[5.0719,12.4182],[5.122,12.4144],[5.1241,12.2858],[5.1602,12.3161],[5.2762,12.342],[5.3146,12.3681],[5.3329,12.4566],[5.2616,12.4524],[5.272,12.6051],[5.2913,12.6225],[5.1998,12.6772],[5.1806,12.7652],[5.1203,12.8001],[5.0852,12.7741]]]},"properties":{"name":"SHAGARI","state":"33","code":"33/14"}},{"type":"Feature","geometry":{"type":"Polygon","coordinates":[[[4.7752,12.8547],[4.8612,12.8737],[4.9119,12.9318],[4.9641,12.931],[4.9853,13.0847],[4.8895,13.0944],[4.8538,13.1244],[4.7454,13.1051],[4.7022,13.0732],[4.7247,13.0495],[4.6607,12.9595],[4.7752,12.8547]]]},"properties":{"name":"SILAME","state":"33","code":"33/15"}},{"type":"Feature","geometry":{"type":"Polygon","coordinates":[[[5.2436,13.0798],[5.223,13.0433],[5.2706,13.0652],[5.2436,13.0798]]]},"properties":{"name":"SOKOTO NORTH","state":"33","code":"33/16"}},{"type":"Feature","geometry":{"type":"Polygon","coordinates":[[[5.2921,13.0305],[5.2706,13.0652],[5.223,13.0433],[5.2474,13.0056],[5.2921,13.0305]]]},"properties":{"name":"SOKOTO SOUTH","state":"33","code":"33/17"}},{"type":"Feature","geometry":{"type":"Polygon","coordinates":[[[4.5303,12.2396],[4.5559,12.2129],[4.5523,12.0977],[4.5882,12.0388],[4.7032,12.2254],[4.875,12.2297],[4.9504,12.2313],[4.9529,12.3144],[5.1241,12.2858],[5.122,12.4144],[5.0719,12.4182],[5.0714,12.4765],[5.016,12.5287],[4.9454,12.5045],[4.9055,12.4283],[4.873,12.5529],[4.8676,12.629],[4.8803,12.7204],[4.7503,12.7509],[4.7304,12.7021],[4.7575,12.637],[4.7947,12.5754],[4.8031,12.4852],[4.7498,12.421],[4.7539,12.3637],[4.6298,12.4329],[4.5858,12.3889],[4.5925,12.3468],[4.5485,12.3015],[4.5303,12.2396]]]},"properties":{"name":"TAMBUWAL","state":"33","code":"33/18"}},{"type":"Feature","geometry":{"type":"Polygon","coordinates":[[[5.071,13.173],[5.1347,13.2496],[5.0776,13.3034],[5.1259,13.3352],[5.119,13.4253],[5.168,13.4276],[5.184,13.52],[5.1528,13.631],[5.1584,13.7432],[5.0779,13.7517],[5.0057,13.7361],[4.9089,13.7459],[4.8735,13.7814],[4.8014,13.7687],[4.8079,13.7118],[4.7043,13.6508],[4.7586,13.5951],[4.7232,13.5429],[4.7638,13.5163],[4.7611,13.4467],[4.7281,13.3509],[4.8544,13.3335],[4.9648,13.2865],[4.9415,13.2581],[5.0158,13.1868],[5.071,13.173]]]},"properties":{"name":"TANGAZA","state":"33","code":"33/19"}},{"type":"Feature","geometry":{"type":"Polygon","coordinates":[[[5.2913,12.6225],[5.272,12.6051],[5.2616,12.4524],[5.3329,12.4566],[5.3146,12.3681],[5.2762,12.342],[5.3116,12.3558],[5.3845,12.3243],[5.4387,12.343],[5.4697,12.2526],[5.5411,12.2728],[5.5667,12.3515],[5.7506,12.3239],[5.7726,12.3835],[5.7172,12.4869],[5.7231,12.6206],[5.6745,12.7348],[5.6373,12.6922],[5.5765,12.6793],[5.5758,12.751],[5.5325,12.7842],[5.4476,12.61],[5.374,12.6208],[5.3743,12.6854],[5.3535,12.6224],[5.2913,12.6225]]]},"properties":{"name":"TURETA","state":"33","code":"33/20"}},{"type":"Feature","geometry":{"type":"Polygon","coordinates":[[[4.9853,13.0847],[4.9641,12.931],[5.0579,12.9337],[5.1062,12.9311],[5.1289,12.9978],[5.1982,12.9489],[5.2474,13.0056],[5.223,13.0433],[5.2436,13.0798],[5.258,13.156],[5.1347,13.2496],[5.071,13.173],[4.9661,13.1165],[4.9853,13.0847]]]},"properties":{"name":"WAMAKKO","state":"33","code":"33/21"}},{"type":"Feature","geometry":{"type":"Polygon","coordinates":[[[5.4853,13.3772],[5.4295,13.31],[5.3886,13.3052],[5.3369,13.2266],[5.3613,13.113],[5.416,13.1467],[5.5222,13.1787],[5.6343,13.2566],[5.722,13.2379],[5.861,13.2206],[5.8516,13.2911],[5.8045,13.3102],[5.7121,13.2891],[5.5899,13.2872],[5.4972,13.3362],[5.4853,13.3772]]]},"properties":{"name":"WURNO","state":"33","code":"33/22"}},{"type":"Feature","geometry":{"type":"Polygon","coordinates":[[[4.7503,12.7509],[4.8803,12.7204],[4.8676,12.629],[4.9607,12.6362],[5.0041,12.6721],[5.0843,12.6638],[5.0852,12.7741],[5.0586,12.8345],[5.1027,12.8574],[5.0579,12.9337],[4.9641,12.931],[4.9119,12.9318],[4.8612,12.8737],[4.7752,12.8547],[4.8068,12.8195],[4.7503,12.7509]]]},"properties":{"name":"YABO","state":"33","code":"33/23"}},{"type":"Feature","geometry":{"type":"Polygon","coordinates":[[[5.9129,11.6357],[5.9729,11.6339],[5.9937,11.6714],[6.0577,11.6723],[6.1625,11.6146],[6.2576,11.6557],[6.2496,11.7167],[6.2836,11.7818],[6.265,11.8798],[6.2154,11.95],[6.1729,12.0929],[6.1144,12.1323],[6.0542,12.1211],[5.999,12.1541],[5.9097,12.1412],[5.8863,12.3139],[5.8182,12.2419],[5.7496,12.2889],[5.7225,12.2427],[5.7211,12.1603],[5.7651,12.0344],[5.819,12.0193],[5.8511,11.8959],[5.9421,11.781],[5.9129,11.6357]]]},"properties":{"name":"ANKA","state":"36","code":"36/01"}},{"type":"Feature","geometry":{"type":"Polygon","coordinates":[[[5.6745,12.7348],[5.7231,12.6206],[5.7172,12.4869],[5.7726,12.3835],[5.7506,12.3239],[5.7496,12.2889],[5.8182,12.2419],[5.8863,12.3139],[5.8762,12.3553],[5.9031,12.448],[5.9996,12.554],[6.0322,12.6105],[6.1053,12.6729],[6.1,12.7797],[6.0341,12.7841],[5.9617,12.7547],[5.8833,12.8203],[5.8131,12.8397],[5.734,12.8268],[5.6347,12.8829],[5.5882,12.8041],[5.6745,12.7348]]]},"properties":{"name":"BAKURA","state":"36","code":"36/02"}},{"type":"Feature","geometry":{"type":"Polygon","coordinates":[[[6.989,12.6734],[6.8167,12.6428],[6.7432,12.5871],[6.6562,12.5522],[6.7011,12.3964],[6.7428,12.3961],[6.8328,12.3351],[6.8376,12.278],[6.8984,12.2755],[6.9491,12.3278],[6.954,12.3752],[7.0101,12.4333],[7.0659,12.4317],[7.0445,12.6589],[6.989,12.6734]]]},"properties":{"name":"BIRNIN MAGAJI","state":"36","code":"36/03"}},{"type":"Feature","geometry":{"type":"Polygon","coordinates":[[[5.8195,11.6484],[5.8808,11.6148],[5.9129,11.6357],[5.9421,11.781],[5.8511,11.8959],[5.819,12.0193],[5.7651,12.0344],[5.7211,12.1603],[5.7225,12.2427],[5.7496,12.2889],[5.7506,12.3239],[5.5667,12.3515],[5.5411,12.2728],[5.4697,12.2526],[5.4387,12.343],[5.3845,12.3243],[5.3116,12.3558],[5.3482,12.2836],[5.4027,12.2665],[5.3977,12.1968],[5.347,12.1327],[5.3691,12.0756],[5.3599,11.9798],[5.2478,11.9214],[5.2314,11.8854],[5.2708,11.78],[5.3158,11.7908],[5.3759,11.7096],[5.4402,11.7088],[5.46,11.6731],[5.5141,11.6648],[5.5802,11.6754],[5.6697,11.6614],[5.705,11.688],[5.7803,11.6839],[5.8195,11.6484]]]},"properties":{"name":"BUKKUYUM","state":"36","code":"36/04"}},{"type":"Feature","geometry":{"type":"Polygon","coordinates":[[[6.8376,12.278],[6.8036,12.2791],[6.6856,12.3415],[6.639,12.3366],[6.5979,12.4475],[6.5008,12.4465],[6.4448,12.3671],[6.4378,12.1826],[6.3848,12.1528],[6.3548,12.0392],[6.4573,12.018],[6.504,11.8935],[6.4312,11.8139],[6.4023,11.7402],[6.4576,11.6014],[6.4971,11.5918],[6.5677,11.6679],[6.5787,11.8848],[6.5926,11.952],[6.5678,12.111],[6.583,12.1774],[6.6756,12.2156],[6.7426,12.2024],[6.7567,12.1376],[6.8269,12.0774],[6.8858,12.1052],[6.9068,12.1597],[6.869,12.2413],[6.8984,12.2755],[6.8376,12.278]]]},"properties":{"name":"BUNGUDU","state":"36","code":"36/05"}},{"type":"Feature","geometry":{"type":"Polygon","coordinates":[[[5.2708,11.78],[5.2314,11.8854],[5.2478,11.9214],[5.3599,11.9798],[5.3691,12.0756],[5.347,12.1327],[5.3977,12.1968],[5.4027,12.2665],[5.3482,12.2836],[5.3116,12.3558],[5.2762,12.342],[5.1602,12.3161],[5.1241,12.2858],[4.9529,12.3144],[4.9504,12.2313],[4.875,12.2297],[4.8667,11.9327],[4.9444,11.8808],[4.9196,11.7899],[4.941,11.7308],[5.0005,11.748],[5.0516,11.7201],[5.238,11.7559],[5.2708,11.78]]]},"properties":{"name":"GUMMI","state":"36","code":"36/06"}},{"type":"Feature","geometry":{"type":"MultiPolygon","coordinates":[[[[6.4971,11.5918],[6.5633,11.5648],[6.6429,11.5683],[6.7137,11.594],[6.7226,11.6715],[6.6819,11.7147],[6.704,11.8264],[6.6648,11.8954],[6.7398,11.9497],[6.7453,11.9996],[6.8054,12.0028],[6.8269,12.0774],[6.7567,12.1376],[6.7426,12.2024],[6.6756,12.2156],[6.583,12.1774],[6.5678,12.111],[6.5926,11.952],[6.5787,11.8848],[6.5677,11.6679],[6.4971,11.5918]]],[[[7.0659,12.4317],[7.0101,12.4333],[6.954,12.3752],[6.9491,12.3278],[6.8984,12.2755],[6.869,12.2413],[6.9068,12.1597],[6.8858,12.1052],[6.9668,12.0667],[7.0002,12.0969],[7.1172,12.094],[7.1568,12.1851],[7.1504,12.2316],[7.0933,12.2826],[7.0659,12.4317]]]]},"properties":{"name":"GUSAU","state":"36","code":"36/07"}},{"type":"Feature","geometry":{"type":"Polygon","coordinates":[[[6.7432,12.5871],[6.7273,12.6264],[6.55,12.678],[6.5242,12.6535],[6.4173,12.64],[6.4199,12.5671],[6.3924,12.5022],[6.4486,12.4957],[6.5008,12.4465],[6.5979,12.4475],[6.639,12.3366],[6.6856,12.3415],[6.8036,12.2791],[6.8376,12.278],[6.8328,12.3351],[6.7428,12.3961],[6.7011,12.3964],[6.6562,12.5522],[6.7432,12.5871]]]},"properties":{"name":"KAURA NAMODA","state":"36","code":"36/08"}},{"type":"Feature","geometry":{"type":"Polygon","coordinates":[[[6.0469,13.0312],[6.0554,12.9667],[6.0058,12.9191],[6.0341,12.7841],[6.1,12.7797],[6.1053,12.6729],[6.1483,12.595],[6.1408,12.5045],[6.1681,12.4345],[6.2203,12.4502],[6.2834,12.4084],[6.4448,12.3671],[6.5008,12.4465],[6.4486,12.4957],[6.3924,12.5022],[6.4199,12.5671],[6.4173,12.64],[6.5242,12.6535],[6.55,12.678],[6.5674,12.739],[6.5146,12.754],[6.421,12.7181],[6.385,12.7516],[6.4857,12.8172],[6.4377,12.8692],[6.4044,12.8323],[6.3422,12.9024],[6.405,12.9477],[6.455,12.998],[6.4317,13.0332],[6.351,13.0178],[6.2106,13.018],[6.1444,13.079],[6.0469,13.0312]]]},"properties":{"name":"MARADUN","state":"36","code":"36/09"}},{"type":"Feature","geometry":{"type":"Polygon","coordinates":[[[6.8894,11.3836],[6.9011,11.4918],[6.904,11.5532],[6.8544,11.5952],[6.7921,11.542],[6.7137,11.594],[6.6429,11.5683],[6.5633,11.5648],[6.4971,11.5918],[6.4576,11.6014],[6.4023,11.7402],[6.4312,11.8139],[6.504,11.8935],[6.4573,12.018],[6.3548,12.0392],[6.3848,12.1528],[6.4378,12.1826],[6.4448,12.3671],[6.2834,12.4084],[6.2408,12.3556],[6.1634,12.1938],[6.1144,12.1323],[6.1729,12.0929],[6.2154,11.95],[6.265,11.8798],[6.2836,11.7818],[6.2496,11.7167],[6.2576,11.6557],[6.1625,11.6146],[6.0577,11.6723],[5.9937,11.6714],[5.9729,11.6339],[5.9129,11.6357],[5.8808,11.6148],[5.8195,11.6484],[5.8268,11.4443],[5.9338,11.4366],[6.0095,11.4626],[6.0796,11.3884],[6.2044,11.3837],[6.1906,11.3341],[6.1357,11.2954],[6.1059,11.1833],[6.0159,11.138],[6.0464,11.0544],[6.1626,11.043],[6.2665,10.9661],[6.337,11.0215],[6.3916,11.0338],[6.437,11.0076],[6.5334,11.0479],[6.5773,11.0216],[6.6565,11.052],[6.6874,11.0917],[6.7034,11.239],[6.7668,11.2722],[6.7706,11.3201],[6.8894,11.3836]]]},"properties":{"name":"MARU","state":"36","code":"36/10"}},{"type":"Feature","geometry":{"type":"Polygon","coordinates":[[[6.1444,13.079],[6.2106,13.018],[6.351,13.0178],[6.4317,13.0332],[6.455,12.998],[6.405,12.9477],[6.5271,12.9166],[6.5625,12.8904],[6.7474,12.9353],[6.7366,13.0057],[6.6068,13.0466],[6.5289,13.0529],[6.5205,13.1218],[6.359,13.1371],[6.3273,13.1796],[6.2583,13.1603],[6.1444,13.079]]]},"properties":{"name":"SHINKAFI","state":"36","code":"36/11"}},{"type":"Feature","geometry":{"type":"Polygon","coordinates":[[[6.1144,12.1323],[6.1634,12.1938],[6.2408,12.3556],[6.2834,12.4084],[6.2203,12.4502],[6.1681,12.4345],[6.1408,12.5045],[6.1483,12.595],[6.1053,12.6729],[6.0322,12.6105],[5.9996,12.554],[5.9031,12.448],[5.8762,12.3553],[5.8863,12.3139],[5.9097,12.1412],[5.999,12.1541],[6.0542,12.1211],[6.1144,12.1323]]]},"properties":{"name":"TALATA MAFARA","state":"36","code":"36/12"}},{"type":"Feature","geometry":{"type":"Polygon","coordinates":[[[7.1172,12.094],[7.0002,12.0969],[6.9668,12.0667],[6.8858,12.1052],[6.8269,12.0774],[6.8054,12.0028],[6.7453,11.9996],[6.7398,11.9497],[6.6648,11.8954],[6.704,11.8264],[6.6819,11.7147],[6.7226,11.6715],[6.7137,11.594],[6.7921,11.542],[6.8544,11.5952],[6.8552,11.6419],[6.9099,11.7858],[7.0173,11.8156],[7.0426,11.7904],[7.1418,11.8493],[7.1408,11.9113],[7.2466,11.9326],[7.1303,12.0684],[7.1172,12.094]]]},"properties":{"name":"TSAFE","state":"36","code":"36/13"}},{"type":"Feature","geometry":{"type":"Polygon","coordinates":[[[7.0607,12.7398],[7.0662,12.8896],[7.0513,12.9955],[6.9333,12.9972],[6.7928,13.1323],[6.6832,13.1072],[6.6068,13.0466],[6.7366,13.0057],[6.7474,12.9353],[6.5625,12.8904],[6.5271,12.9166],[6.405,12.9477],[6.3422,12.9024],[6.4044,12.8323],[6.4377,12.8692],[6.4857,12.8172],[6.385,12.7516],[6.421,12.7181],[6.5146,12.754],[6.5674,12.739],[6.55,12.678],[6.7273,12.6264],[6.7432,12.5871],[6.8167,12.6428],[6.989,12.6734],[7.043,12.7196],[7.0607,12.7398]]]},"properties":{"name":"ZURMI","state":"36","code":"36/14"}}]}