{"type":"FeatureCollection","features":[{"type":"Feature","geometry":{"type":"Polygon","coordinates":[[[9.195,11.3266],[9.3514,11.3432],[9.4116,11.3],[9.6094,11.3155],[9.5956,11.2476],[9.6841,11.2219],[9.8249,11.2788],[9.8827,11.1638],[9.8629,11.0064],[9.9855,10.9582],[10.088,10.99],[10.134,10.9475],[10.1892,11.0817],[10.2696,11.088],[10.3585,11.2081],[10.1897,11.2222],[10.0842,11.2697],[9.9985,11.2646],[9.885,11.3567],[9.878,11.4485],[9.8308,11.5403],[9.8208,11.6716],[9.7796,11.7365],[9.6397,11.733],[9.7079,11.8499],[9.8827,11.9332],[10.1749,12.0462],[10.1475,12.2382],[10.2581,12.4596],[10.4589,12.4407],[10.6056,12.489],[10.5986,12.7061],[10.5377,12.8236],[10.4752,12.79],[10.3047,12.8611],[10.2243,13.0148],[9.988,12.9564],[9.8582,12.8202],[9.7652,12.7962],[9.0409,12.8461],[8.8646,12.669],[8.7229,12.6699],[8.6038,12.7373],[8.5891,12.8086],[8.5021,12.8338],[8.3375,12.836],[8.1789,12.8113],[8.1445,12.7213],[8.1904,12.624],[8.2462,12.5944],[8.3111,12.5077],[8.3874,12.4703],[8.4584,12.5869],[8.556,12.6026],[8.7191,12.5666],[8.6875,12.4828],[8.7099,12.4159],[8.7951,12.3823],[8.7583,12.2934],[8.9099,12.301],[8.9522,12.1853],[8.915,12.0762],[9.0741,12.0735],[9.228,12.0144],[9.1657,11.7066],[9.3603,11.5608],[9.23,11.4457],[9.195,11.3266]]]},"properties":{"name":"JIGAWA","state":"17","code":"17"}},{"type":"Feature","geometry":{"type":"Polygon","coordinates":[[[6.2665,10.9661],[6.1226,10.8449],[6.0989,10.7017],[6.1583,10.5008],[6.1731,10.3809],[6.2357,10.3848],[6.4024,10.5744],[6.4945,10.6157],[6.5403,10.5452],[6.803,10.6432],[6.8419,10.5725],[6.9535,10.4822],[6.9231,10.3822],[7.0508,10.3171],[7.0098,10.2504],[6.8853,10.1508],[6.9523,10.0476],[7.2778,10.0164],[7.2929,9.8112],[7.2047,9.7583],[7.3056,9.6277],[7.2339,9.5648],[7.2009,9.4598],[7.2323,9.3177],[7.5091,9.355],[7.647,9.4087],[7.7929,9.2756],[7.9191,9.3174],[8.0872,9.2307],[8.0616,9.0521],[8.1919,9.0524],[8.2584,9.1829],[8.3873,9.1757],[8.5333,9.0044],[8.6207,9.1149],[8.6942,9.3223],[8.5778,9.4992],[8.555,9.5806],[8.5989,9.7279],[8.6439,9.7754],[8.6347,9.8668],[8.6799,10.0051],[8.672,10.1462],[8.7343,10.2751],[8.7993,10.3029],[8.8183,10.3804],[8.7767,10.4795],[8.7832,10.597],[8.7111,10.5434],[8.6496,10.6241],[8.5063,10.6505],[8.4812,10.7159],[8.5716,10.7483],[8.5715,10.9219],[8.6073,11.0712],[8.5196,11.1149],[8.4338,11.2266],[8.3252,11.2272],[8.2068,11.3187],[8.1433,11.4203],[8.1501,11.5192],[8.0009,11.4921],[7.8789,11.3862],[7.7507,11.3714],[7.7062,11.31],[7.6075,11.2718],[7.4725,11.376],[7.3923,11.3748],[7.3578,11.2643],[7.2274,11.2786],[7.201,11.1534],[7.1521,11.1288],[6.9677,11.2452],[7.0062,11.3618],[6.8894,11.3836],[6.7706,11.3201],[6.7034,11.239],[6.6874,11.0917],[6.5773,11.0216],[6.5334,11.0479],[6.437,11.0076],[6.337,11.0215],[6.2665,10.9661]]]},"properties":{"name":"KADUNA","state":"18","code":"18"}},{"type":"Feature","geometry":{"type":"Polygon","coordinates":[[[8.2462,12.5944],[8.1814,12.5617],[8.1567,12.4403],[8.0552,12.4172],[7.9226,12.3367],[7.8552,12.1471],[7.8798,12.0443],[7.8293,11.9686],[7.8651,11.8735],[7.8883,11.7072],[7.8412,11.6329],[7.7049,11.5925],[7.6752,11.4833],[7.7507,11.3714],[7.8789,11.3862],[8.0009,11.4921],[8.1501,11.5192],[8.1433,11.4203],[8.2068,11.3187],[8.3252,11.2272],[8.4338,11.2266],[8.5196,11.1149],[8.6073,11.0712],[8.5715,10.9219],[8.5716,10.7483],[8.4812,10.7159],[8.5063,10.6505],[8.6496,10.6241],[8.7111,10.5434],[8.7832,10.597],[8.8552,10.7074],[8.7458,10.8572],[8.7897,10.9477],[8.8178,11.0969],[9.0849,11.3149],[9.195,11.3266],[9.23,11.4457],[9.3603,11.5608],[9.1657,11.7066],[9.228,12.0144],[9.0741,12.0735],[8.915,12.0762],[8.9522,12.1853],[8.9099,12.301],[8.7583,12.2934],[8.7951,12.3823],[8.7099,12.4159],[8.6875,12.4828],[8.7191,12.5666],[8.556,12.6026],[8.4584,12.5869],[8.3874,12.4703],[8.3111,12.5077],[8.2462,12.5944]]]},"properties":{"name":"KANO","state":"19","code":"19"}},{"type":"Feature","geometry":{"type":"Polygon","coordinates":[[[9.0409,12.8461],[8.9552,12.8556],[8.6636,12.9433],[8.5419,13.075],[8.4086,13.0883],[8.2872,13.1983],[8.1222,13.3036],[7.8197,13.3523],[7.3797,13.0997],[7.2189,13.1256],[7.0906,12.9953],[7.0513,12.9955],[7.0662,12.8896],[7.0445,12.6589],[7.0933,12.2826],[7.1504,12.2316],[7.1279,12.1245],[7.1487,12.033],[7.2264,11.9135],[7.0426,11.7904],[6.9099,11.7858],[6.8552,11.6419],[6.904,11.5532],[6.8894,11.3836],[7.0062,11.3618],[6.9677,11.2452],[7.1521,11.1288],[7.201,11.1534],[7.2274,11.2786],[7.3578,11.2643],[7.3923,11.3748],[7.4725,11.376],[7.6075,11.2718],[7.7062,11.31],[7.7507,11.3714],[7.6752,11.4833],[7.7049,11.5925],[7.8412,11.6329],[7.8883,11.7072],[7.8651,11.8735],[7.8293,11.9686],[7.8798,12.0443],[7.8552,12.1471],[7.9226,12.3367],[8.0552,12.4172],[8.1567,12.4403],[8.1814,12.5617],[8.2462,12.5944],[8.1904,12.624],[8.1445,12.7213],[8.1789,12.8113],[8.3375,12.836],[8.5021,12.8338],[8.5891,12.8086],[8.6038,12.7373],[8.7229,12.6699],[8.8646,12.669],[9.0409,12.8461]]]},"properties":{"name":"KATSINA","state":"20","code":"20"}},{"type":"Feature","geometry":{"type":"Polygon","coordinates":[[[4.1264,13.2497],[4.1431,13.1822],[4.105,12.9964],[3.9528,12.7489],[3.6727,12.5519],[3.6524,12.4865],[3.6661,12.2071],[3.6296,12.1488],[3.6717,11.9756],[3.6187,11.9082],[3.6639,11.7554],[3.6139,11.6996],[3.5109,11.67],[3.5107,11.5247],[3.4771,11.4554],[3.4856,11.3134],[3.731,11.087],[3.7172,11.0198],[3.8023,10.9461],[3.9328,10.943],[3.993,11.0165],[4.2254,11.0193],[4.3298,10.9514],[4.3811,10.88],[4.5398,10.92],[4.5997,10.8892],[4.695,10.9193],[4.7204,10.8594],[4.6908,10.6629],[4.5851,10.5639],[4.5101,10.5352],[4.4795,10.4213],[4.4908,10.314],[4.5674,10.2229],[4.53,10.1006],[4.6248,10.1027],[4.6465,10.205],[4.7939,10.2607],[4.8715,10.2183],[4.9465,10.2853],[4.932,10.4395],[4.8187,10.5071],[4.7961,10.6293],[4.8257,10.7084],[4.9083,10.6902],[5.101,10.7613],[5.0253,10.8903],[5.0814,10.9505],[5.0406,11.0519],[4.9087,11.0819],[4.7461,11.1476],[4.7119,11.2971],[4.8674,11.3581],[4.9589,11.3693],[5.0167,11.2512],[5.2334,11.2182],[5.2497,11.3094],[5.3485,11.3389],[5.404,11.147],[5.389,11.0375],[5.4473,10.9835],[5.5572,10.9475],[5.729,10.9984],[5.8003,11.0825],[5.9777,11.167],[6.0159,11.138],[6.1059,11.1833],[6.1357,11.2954],[6.2044,11.3837],[6.0796,11.3884],[6.0095,11.4626],[5.8268,11.4443],[5.8195,11.6484],[5.7803,11.6839],[5.4972,11.6559],[5.2951,11.7741],[5.0516,11.7201],[4.941,11.7308],[4.8026,11.7577],[4.6668,11.6676],[4.5462,11.6344],[4.5228,11.5303],[4.4192,11.6142],[4.4364,11.7108],[4.549,11.7955],[4.5882,12.0388],[4.5523,12.0977],[4.552,12.2842],[4.6298,12.4329],[4.7498,12.421],[4.8031,12.4852],[4.7947,12.5754],[4.7319,12.6721],[4.8068,12.8195],[4.6607,12.9595],[4.7247,13.0495],[4.623,13.0701],[4.4675,13.1805],[4.3744,13.2011],[4.3002,13.2596],[4.1264,13.2497]]]},"properties":{"name":"KEBBI","state":"21","code":"21"}},{"type":"Feature","geometry":{"type":"Polygon","coordinates":[[[4.941,11.7308],[4.9444,11.8808],[4.8667,11.9327],[4.875,12.2297],[4.9504,12.2313],[4.9529,12.3144],[5.128,12.2857],[5.3116,12.3558],[5.4387,12.343],[5.4697,12.2526],[5.5411,12.2728],[5.5667,12.3515],[5.7506,12.3239],[5.7726,12.3835],[5.7172,12.4869],[5.7231,12.6206],[5.6493,12.7689],[5.5882,12.8041],[5.6347,12.8829],[5.734,12.8268],[5.8833,12.8203],[5.9617,12.7547],[6.0341,12.7841],[6.0058,12.9191],[6.0469,13.0312],[6.1909,13.1008],[6.2583,13.1603],[6.5205,13.1218],[6.5813,13.0225],[6.6877,13.1329],[6.7928,13.1323],[6.7126,13.3115],[6.4953,13.5684],[6.2964,13.679],[6.1557,13.6447],[5.825,13.7638],[5.53,13.8857],[5.3504,13.8341],[5.2813,13.7561],[5.2047,13.736],[4.9089,13.7459],[4.8735,13.7814],[4.7084,13.7585],[4.3944,13.6535],[4.2324,13.4994],[4.1265,13.4682],[4.1264,13.2497],[4.3002,13.2596],[4.3744,13.2011],[4.4675,13.1805],[4.623,13.0701],[4.7247,13.0495],[4.6607,12.9595],[4.8068,12.8195],[4.7319,12.6721],[4.7947,12.5754],[4.8031,12.4852],[4.7498,12.421],[4.6298,12.4329],[4.552,12.2842],[4.5523,12.0977],[4.5882,12.0388],[4.549,11.7955],[4.4364,11.7108],[4.4192,11.6142],[4.5228,11.5303],[4.5462,11.6344],[4.6668,11.6676],[4.8026,11.7577],[4.941,11.7308]]]},"properties":{"name":"SOKOTO","state":"33","code":"33"}},{"type":"Feature","geometry":{"type":"Polygon","coordinates":[[[6.8894,11.3836],[6.904,11.5532],[6.8552,11.6419],[6.9099,11.7858],[7.0426,11.7904],[7.2264,11.9135],[7.1487,12.033],[7.1279,12.1245],[7.1504,12.2316],[7.0933,12.2826],[7.0445,12.6589],[7.0662,12.8896],[7.0513,12.9955],[6.9333,12.9972],[6.7928,13.1323],[6.6877,13.1329],[6.5813,13.0225],[6.5205,13.1218],[6.2583,13.1603],[6.1909,13.1008],[6.0469,13.0312],[6.0058,12.9191],[6.0341,12.7841],[5.9617,12.7547],[5.8833,12.8203],[5.734,12.8268],[5.6347,12.8829],[5.5882,12.8041],[5.6493,12.7689],[5.7231,12.6206],[5.7172,12.4869],[5.7726,12.3835],[5.7506,12.3239],[5.5667,12.3515],[5.5411,12.2728],[5.4697,12.2526],[5.4387,12.343],[5.3116,12.3558],[5.128,12.2857],[4.9529,12.3144],[4.9504,12.2313],[4.875,12.2297],[4.8667,11.9327],[4.9444,11.8808],[4.941,11.7308],[5.0516,11.7201],[5.2951,11.7741],[5.4972,11.6559],[5.7803,11.6839],[5.8195,11.6484],[5.8268,11.4443],[6.0095,11.4626],[6.0796,11.3884],[6.2044,11.3837],[6.1357,11.2954],[6.1059,11.1833],[6.0159,11.138],[6.0464,11.0544],[6.1626,11.043],[6.2665,10.9661],[6.337,11.0215],[6.437,11.0076],[6.5334,11.0479],[6.5773,11.0216],[6.6874,11.0917],[6.7034,11.239],[6.7706,11.3201],[6.8894,11.3836]]]},"properties":{"name":"ZAMFARA","state":"36","code":"36"}}]}